{"type":"FeatureCollection","features":[{"type":"Feature","properties":{"grupo":"concluida","codigo":"AM-151","trecho":"Estrada Carlos Braga","municipio":"Iranduba","km":12.61},"geometry":{"type":"LineString","coordinates":[[-60.18987,-3.29115],[-60.18875,-3.28984],[-60.18843,-3.2882],[-60.18785,-3.28669],[-60.18746,-3.28501],[-60.18745,-3.28335],[-60.18387,-3.27673],[-60.18344,-3.2762],[-60.183,-3.27596],[-60.17946,-3.27486],[-60.17737,-3.2737],[-60.17728,-3.27349],[-60.17687,-3.27341],[-60.1751,-3.27234],[-60.1639,-3.26462],[-60.163,-3.26384],[-60.16254,-3.26305],[-60.16223,-3.26217],[-60.16121,-3.25775],[-60.16119,-3.25556],[-60.1615,-3.25058],[-60.16208,-3.24955],[-60.16781,-3.24162],[-60.16815,-3.24055],[-60.16807,-3.23988],[-60.1667,-3.23703],[-60.16681,-3.23115],[-60.16643,-3.23062],[-60.16491,-3.22992],[-60.16432,-3.22978],[-60.16388,-3.2294],[-60.16283,-3.2277],[-60.16254,-3.22686],[-60.16272,-3.22619],[-60.16447,-3.22371],[-60.16716,-3.22119],[-60.16743,-3.22035],[-60.16772,-3.21627],[-60.16768,-3.2151],[-60.16734,-3.21423],[-60.16307,-3.20854],[-60.16269,-3.20771],[-60.16253,-3.20664],[-60.16256,-3.20541],[-60.16364,-3.20095],[-60.1635,-3.20021],[-60.16315,-3.1998]]}},{"type":"Feature","properties":{"grupo":"concluida","codigo":"AM-239","trecho":"Estrada de Camanaus (acesso ao aeroporto)","municipio":"São Gabriel da Cachoeira","km":14.43},"geometry":{"type":"LineString","coordinates":[[-67.04029,-0.13148],[-67.03987,-0.13179],[-67.03354,-0.13983],[-67.03243,-0.14099],[-67.03123,-0.1418],[-67.03016,-0.14225],[-67.02698,-0.14259],[-67.02403,-0.14442],[-67.02382,-0.14468],[-67.02259,-0.14924],[-67.01939,-0.15133],[-67.01879,-0.15147],[-67.01834,-0.15136],[-67.0141,-0.14877],[-67.01369,-0.14866],[-67.00914,-0.15049],[-67.00541,-0.15216],[-67.00074,-0.15585],[-67.00054,-0.15623],[-67.0005,-0.15669],[-67.00067,-0.15933],[-67.00038,-0.16037],[-66.99761,-0.16344],[-66.99694,-0.16375],[-66.99604,-0.16373],[-66.99086,-0.16225],[-66.99054,-0.16206],[-66.99003,-0.16146],[-66.98863,-0.15794],[-66.98796,-0.15752],[-66.97169,-0.15295],[-66.96642,-0.15013],[-66.96449,-0.14988],[-66.96172,-0.15045],[-66.96117,-0.15039],[-66.95862,-0.14844],[-66.9576,-0.1479],[-66.95572,-0.14816],[-66.95382,-0.14964],[-66.95309,-0.14985],[-66.93843,-0.1472],[-66.93768,-0.14719],[-66.93629,-0.14757],[-66.93567,-0.14865]]}},{"type":"Feature","properties":{"grupo":"concluida","codigo":"AM-249","trecho":"Estrada da Vila de Copacá","municipio":"Uarini","km":14.88},"geometry":{"type":"LineString","coordinates":[[-65.1582,-2.98566],[-65.16008,-2.98465],[-65.16178,-2.98406],[-65.17086,-2.98253],[-65.17627,-2.98037],[-65.17954,-2.98034],[-65.18179,-2.98002],[-65.18339,-2.97904],[-65.18497,-2.97944],[-65.18614,-2.97924],[-65.18724,-2.97947],[-65.18832,-2.98012],[-65.18951,-2.98139],[-65.19142,-2.98196],[-65.19253,-2.9821],[-65.19375,-2.98187],[-65.19499,-2.98134],[-65.19536,-2.98074],[-65.19593,-2.97928],[-65.19655,-2.97877],[-65.1979,-2.97854],[-65.19837,-2.97869],[-65.19915,-2.97924],[-65.20006,-2.97954],[-65.20224,-2.97957],[-65.20764,-2.97768],[-65.21042,-2.97703],[-65.21315,-2.97714],[-65.21487,-2.97693],[-65.21658,-2.97771],[-65.21755,-2.97793],[-65.22278,-2.97878],[-65.22395,-2.9787],[-65.22905,-2.97771],[-65.23394,-2.9754],[-65.2367,-2.97386],[-65.23695,-2.97324],[-65.23676,-2.97126],[-65.237,-2.96981],[-65.2409,-2.96107],[-65.24302,-2.9507],[-65.24326,-2.94888],[-65.24326,-2.9471],[-65.24198,-2.93299],[-65.24213,-2.93253],[-65.24251,-2.9322],[-65.24359,-2.93011],[-65.24443,-2.9289],[-65.24455,-2.92737],[-65.24441,-2.92708],[-65.24393,-2.92672]]}},{"type":"Feature","properties":{"grupo":"concluida","codigo":"AM-351","trecho":"Ramal do Banco","municipio":"Rio Preto da Eva","km":19.93},"geometry":{"type":"LineString","coordinates":[[-59.41696,-2.83779],[-59.41622,-2.83579],[-59.41572,-2.83493],[-59.413,-2.83348],[-59.41227,-2.83291],[-59.41197,-2.83295],[-59.41164,-2.83324],[-59.41122,-2.83399],[-59.41069,-2.83447],[-59.40965,-2.83475],[-59.40896,-2.83474],[-59.4084,-2.83456],[-59.40685,-2.83298],[-59.40404,-2.83044],[-59.40177,-2.82937],[-59.40075,-2.82781],[-59.39974,-2.82673],[-59.39961,-2.82643],[-59.39982,-2.8245],[-59.39946,-2.82369],[-59.39786,-2.82228],[-59.39718,-2.82186],[-59.39635,-2.82078],[-59.39505,-2.81953],[-59.3944,-2.81911],[-59.39371,-2.8176],[-59.39353,-2.81743],[-59.39116,-2.8168],[-59.39002,-2.81688],[-59.38775,-2.81677],[-59.38668,-2.81726],[-59.38633,-2.81726],[-59.38543,-2.81696],[-59.38485,-2.81642],[-59.38407,-2.81538],[-59.38321,-2.81488],[-59.38235,-2.8135],[-59.38214,-2.81239],[-59.38191,-2.81186],[-59.38054,-2.81114],[-59.37867,-2.81052],[-59.37762,-2.81001],[-59.37721,-2.8096],[-59.37674,-2.80853],[-59.37649,-2.80744],[-59.37587,-2.80627],[-59.37594,-2.80531],[-59.37634,-2.80412],[-59.37593,-2.80313],[-59.37478,-2.80242],[-59.37413,-2.80228],[-59.37378,-2.80198],[-59.37358,-2.80156],[-59.37237,-2.80058],[-59.37098,-2.79992],[-59.36901,-2.79773],[-59.36892,-2.7973],[-59.36901,-2.79637],[-59.36927,-2.79571],[-59.36922,-2.79534],[-59.3679,-2.79342],[-59.36726,-2.79017],[-59.36726,-2.78945],[-59.36685,-2.78881],[-59.36661,-2.78735],[-59.36697,-2.78428],[-59.36678,-2.78342],[-59.36709,-2.78243],[-59.36715,-2.78093],[-59.36743,-2.77994],[-59.36707,-2.77938],[-59.36589,-2.77856],[-59.36547,-2.77803],[-59.36408,-2.77525],[-59.36269,-2.7735],[-59.36201,-2.77228],[-59.36183,-2.77166],[-59.36061,-2.76969],[-59.35978,-2.76887],[-59.35933,-2.7686],[-59.35887,-2.76737],[-59.35848,-2.76676],[-59.35818,-2.76566],[-59.35823,-2.76481],[-59.35884,-2.76348],[-59.35982,-2.762],[-59.35996,-2.76153],[-59.35966,-2.76068],[-59.35887,-2.75948],[-59.35844,-2.75851],[-59.35814,-2.75737],[-59.35806,-2.75647],[-59.35711,-2.75443],[-59.35641,-2.75345],[-59.35598,-2.7532],[-59.35498,-2.75339],[-59.35367,-2.75327],[-59.35285,-2.75354],[-59.35237,-2.75355],[-59.35085,-2.75271],[-59.34957,-2.75133],[-59.34856,-2.7507],[-59.34658,-2.75086],[-59.34594,-2.75079],[-59.34545,-2.75052],[-59.34417,-2.74912],[-59.34367,-2.74803],[-59.34312,-2.74763],[-59.34173,-2.74526],[-59.34169,-2.74432],[-59.34128,-2.74282],[-59.3415,-2.7421],[-59.3423,-2.7407],[-59.34232,-2.74007],[-59.34215,-2.73948],[-59.34071,-2.73769],[-59.3405,-2.73661],[-59.34013,-2.73591],[-59.33973,-2.7346],[-59.33803,-2.73241],[-59.33717,-2.7321],[-59.33609,-2.73148],[-59.3349,-2.73059],[-59.33347,-2.72978],[-59.3327,-2.72952],[-59.33187,-2.72958],[-59.33109,-2.73007],[-59.33072,-2.73003],[-59.3298,-2.72888],[-59.3286,-2.72856],[-59.32659,-2.72754],[-59.32643,-2.72738],[-59.32582,-2.72516],[-59.32543,-2.72335],[-59.32544,-2.72223],[-59.32533,-2.72195],[-59.32454,-2.72025],[-59.32415,-2.71983],[-59.32343,-2.71863],[-59.32257,-2.71765],[-59.32236,-2.71759]]}},{"type":"Feature","properties":{"grupo":"concluida","codigo":"AM-362","trecho":"Estrada do Nogueira (Estrada do Alvarães)","municipio":"Alvarães","km":14.01},"geometry":{"type":"LineString","coordinates":[[-64.80506,-3.21038],[-64.80529,-3.21058],[-64.80503,-3.21111],[-64.80504,-3.21203],[-64.8065,-3.21195],[-64.80825,-3.21308],[-64.81087,-3.21444],[-64.8114,-3.21459],[-64.81219,-3.21465],[-64.8137,-3.21453],[-64.81475,-3.21476],[-64.81582,-3.21535],[-64.817,-3.21674],[-64.8201,-3.21842],[-64.82165,-3.22055],[-64.82161,-3.2225],[-64.82174,-3.22317],[-64.82195,-3.22357],[-64.8232,-3.225],[-64.82436,-3.22792],[-64.82483,-3.22862],[-64.8255,-3.23045],[-64.8263,-3.23199],[-64.82886,-3.23486],[-64.82912,-3.23548],[-64.82912,-3.23598],[-64.82868,-3.23668],[-64.82578,-3.23751],[-64.82477,-3.2381],[-64.82433,-3.23878],[-64.82303,-3.24179],[-64.82262,-3.2424],[-64.81935,-3.24419],[-64.81625,-3.24784],[-64.81504,-3.24978],[-64.8138,-3.2511],[-64.81169,-3.25285],[-64.80975,-3.25415],[-64.80737,-3.25733],[-64.80524,-3.25871],[-64.8047,-3.25919],[-64.80179,-3.26346],[-64.80162,-3.26392],[-64.80167,-3.26488],[-64.80144,-3.26564],[-64.79995,-3.26725],[-64.79753,-3.26936],[-64.79626,-3.26983],[-64.79404,-3.27149],[-64.79036,-3.27307],[-64.78947,-3.27369],[-64.78891,-3.27426],[-64.78867,-3.27475],[-64.78825,-3.27643],[-64.78626,-3.28116],[-64.78627,-3.28199],[-64.78672,-3.28496],[-64.78673,-3.28591],[-64.7864,-3.28701],[-64.78555,-3.28866],[-64.78477,-3.2911],[-64.78446,-3.29336],[-64.78394,-3.29519],[-64.7841,-3.29792],[-64.78131,-3.30121]]}},{"type":"Feature","properties":{"grupo":"candidata","codigo":"AM-347","trecho":"Estrada do Membeca","municipio":"Caapiranga, Manacapuru e Iranduba","km":33.07},"geometry":{"type":"LineString","coordinates":[[-61.08202,-3.09448],[-61.08188,-3.09466],[-61.08181,-3.09458],[-61.0804,-3.09198],[-61.08024,-3.09082],[-61.07945,-3.08744],[-61.0786,-3.08639],[-61.0785,-3.08603],[-61.0788,-3.08342],[-61.07842,-3.08285],[-61.07835,-3.08251],[-61.07838,-3.08216],[-61.0787,-3.08184],[-61.08068,-3.08089],[-61.08022,-3.07877],[-61.08023,-3.07835],[-61.08069,-3.07716],[-61.08066,-3.07674],[-61.08023,-3.07563],[-61.08019,-3.07523],[-61.0808,-3.07339],[-61.08075,-3.07232],[-61.08048,-3.07143],[-61.08072,-3.0695],[-61.08122,-3.06743],[-61.08116,-3.06634],[-61.08133,-3.06574],[-61.08129,-3.06474],[-61.08141,-3.06437],[-61.08131,-3.06396],[-61.08051,-3.06309],[-61.08017,-3.06245],[-61.08022,-3.0617],[-61.08046,-3.06119],[-61.08078,-3.05972],[-61.08163,-3.05872],[-61.08174,-3.05796],[-61.082,-3.05761],[-61.10426,-3.03863],[-61.10461,-3.03811],[-61.10465,-3.03793],[-61.10452,-3.03777],[-61.09759,-3.03494],[-61.09694,-3.03479],[-61.08586,-3.03041],[-61.08525,-3.02994],[-61.08439,-3.02986],[-61.07133,-3.02467],[-61.07069,-3.02451],[-61.07054,-3.02436],[-61.06772,-3.02332],[-61.06736,-3.0233],[-61.05974,-3.02776],[-61.05884,-3.02841],[-61.05707,-3.03022],[-61.05677,-3.03035],[-61.05649,-3.03103],[-61.05475,-3.03292],[-61.05335,-3.03505],[-61.05165,-3.0373],[-61.05061,-3.03947],[-61.04751,-3.0422],[-61.04598,-3.04516],[-61.04559,-3.04561],[-61.04406,-3.04643],[-61.04194,-3.04798],[-61.04012,-3.04845],[-61.03856,-3.04916],[-61.03752,-3.04947],[-61.03553,-3.05061],[-61.03483,-3.05174],[-61.03402,-3.05254],[-61.03382,-3.05336],[-61.0333,-3.05409],[-61.0325,-3.05463],[-61.03053,-3.05665],[-61.02987,-3.05711],[-61.02849,-3.05866],[-61.02757,-3.05899],[-61.02636,-3.0588],[-61.02456,-3.05812],[-61.02335,-3.05738],[-61.02165,-3.05696],[-61.02019,-3.05694],[-61.0184,-3.05722],[-61.01748,-3.05687],[-61.0167,-3.05619],[-61.01489,-3.05315],[-61.01295,-3.04875],[-61.01193,-3.04562],[-61.01121,-3.04384],[-61.01018,-3.03047],[-61.00713,-3.0227],[-61.00641,-3.02039],[-61.00443,-3.0158],[-61.00312,-3.01307],[-61.00154,-3.00924],[-60.99872,-3.00414],[-60.99759,-3.00253],[-60.9954,-2.99982],[-60.9885,-2.99199],[-60.98563,-2.98763],[-60.98263,-2.98344],[-60.96761,-2.96988],[-60.96588,-2.96808],[-60.95956,-2.96275],[-60.95508,-2.95926]]}},{"type":"Feature","properties":{"grupo":"candidata","codigo":"AM-347","trecho":"Estrada do Membeca","municipio":"Caapiranga, Manacapuru e Iranduba","km":31.83},"geometry":{"type":"LineString","coordinates":[[-61.21315,-3.32644],[-61.21275,-3.32518],[-61.21186,-3.32383],[-61.20962,-3.32237],[-61.20839,-3.32092],[-61.20821,-3.32047],[-61.20869,-3.31729],[-61.20819,-3.31445],[-61.20813,-3.31129],[-61.21071,-3.30521],[-61.21169,-3.30345],[-61.21343,-3.30138],[-61.21462,-3.29873],[-61.21789,-3.29268],[-61.21859,-3.29017],[-61.22188,-3.28666],[-61.22891,-3.28528],[-61.23281,-3.28352],[-61.23695,-3.28118],[-61.23836,-3.2801],[-61.24162,-3.27704],[-61.24208,-3.2764],[-61.24235,-3.27559],[-61.2426,-3.27377],[-61.2423,-3.27004],[-61.24273,-3.26761],[-61.24382,-3.26337],[-61.24381,-3.26289],[-61.24283,-3.26159],[-61.2414,-3.25857],[-61.23824,-3.2536],[-61.23787,-3.2523],[-61.23761,-3.24808],[-61.23738,-3.24708],[-61.23564,-3.24385],[-61.23534,-3.24213],[-61.23388,-3.23766],[-61.23312,-3.23629],[-61.23153,-3.23481],[-61.23062,-3.23253],[-61.22953,-3.23083],[-61.22702,-3.22782],[-61.22464,-3.22596],[-61.22392,-3.22511],[-61.22265,-3.22322],[-61.2214,-3.22201],[-61.22016,-3.21812],[-61.21998,-3.21791],[-61.21772,-3.21668],[-61.21476,-3.21295],[-61.21432,-3.21258],[-61.21195,-3.2114],[-61.20993,-3.21088],[-61.20867,-3.21104],[-61.20825,-3.21085],[-61.20747,-3.21033],[-61.20675,-3.20926],[-61.20541,-3.20833],[-61.20374,-3.20809],[-61.20252,-3.20771],[-61.20092,-3.20766],[-61.1991,-3.20647],[-61.19697,-3.20574],[-61.19545,-3.20477],[-61.19363,-3.20321],[-61.19148,-3.20175],[-61.18967,-3.20107],[-61.18801,-3.20122],[-61.18683,-3.20187],[-61.18507,-3.20202],[-61.18078,-3.2006],[-61.17876,-3.20059],[-61.17841,-3.20055],[-61.17729,-3.20004],[-61.17603,-3.20006],[-61.17443,-3.19866],[-61.17353,-3.19721],[-61.17321,-3.19644],[-61.17204,-3.19597],[-61.17128,-3.19537],[-61.17086,-3.19482],[-61.16986,-3.19271],[-61.16961,-3.19242],[-61.16757,-3.1911],[-61.16632,-3.18985],[-61.16579,-3.18963],[-61.16488,-3.18879],[-61.16398,-3.18765],[-61.16191,-3.18665],[-61.15978,-3.18396],[-61.15965,-3.18358],[-61.15983,-3.18293],[-61.15972,-3.18148],[-61.15919,-3.18109],[-61.15847,-3.18001],[-61.1581,-3.17913],[-61.15752,-3.17655],[-61.15722,-3.17288],[-61.15655,-3.17246],[-61.15639,-3.17208],[-61.15614,-3.1676],[-61.15574,-3.16639],[-61.15376,-3.16442],[-61.15285,-3.1637],[-61.15275,-3.16335],[-61.15279,-3.16204],[-61.15257,-3.16172],[-61.15153,-3.16158],[-61.1509,-3.16178],[-61.15024,-3.16122],[-61.14973,-3.16028],[-61.14943,-3.15804],[-61.14947,-3.15699],[-61.14963,-3.15528],[-61.15007,-3.1543],[-61.1501,-3.15342],[-61.15001,-3.15239],[-61.14979,-3.15163],[-61.14841,-3.15046],[-61.1477,-3.15033],[-61.14654,-3.15105],[-61.14471,-3.15111],[-61.14421,-3.15081],[-61.14326,-3.14919],[-61.14316,-3.14882],[-61.14326,-3.14842],[-61.1432,-3.1478],[-61.14151,-3.14719],[-61.14022,-3.14712],[-61.13985,-3.14686],[-61.13956,-3.14646],[-61.13924,-3.14535],[-61.13937,-3.14418],[-61.1393,-3.1438],[-61.13875,-3.14317],[-61.1386,-3.14246],[-61.13849,-3.1408],[-61.13883,-3.13973],[-61.13884,-3.13907],[-61.13848,-3.13876],[-61.13627,-3.13784],[-61.1339,-3.13738],[-61.13368,-3.13761],[-61.13347,-3.1383],[-61.13298,-3.13879],[-61.13252,-3.13883],[-61.13202,-3.1387],[-61.13164,-3.13835],[-61.131,-3.13533],[-61.1305,-3.13519],[-61.12917,-3.13513],[-61.1287,-3.13562],[-61.12837,-3.13575],[-61.12792,-3.13559],[-61.12641,-3.13412],[-61.12605,-3.13337],[-61.12623,-3.13277]]}},{"type":"Feature","properties":{"grupo":"candidata","codigo":"AM-353","trecho":"Estrada do Purupuru","municipio":"Careiro da Várzea, Careiro e Autazes","km":28.36},"geometry":{"type":"LineString","coordinates":[[-59.77899,-3.5423],[-59.77902,-3.54218],[-59.77855,-3.54157],[-59.76758,-3.52842],[-59.75312,-3.51028],[-59.75161,-3.50551],[-59.75008,-3.49955],[-59.7481,-3.49566],[-59.74782,-3.4931],[-59.74763,-3.4925],[-59.74693,-3.49152],[-59.74422,-3.48901],[-59.74243,-3.48496],[-59.74001,-3.48268],[-59.7397,-3.48225],[-59.73825,-3.47922],[-59.73678,-3.47463],[-59.73565,-3.47175],[-59.73561,-3.47127],[-59.736,-3.46846],[-59.73575,-3.46589],[-59.73611,-3.46163],[-59.73609,-3.46058],[-59.73512,-3.45466],[-59.7349,-3.45401],[-59.73463,-3.45365],[-59.73402,-3.45323],[-59.72982,-3.45204],[-59.7177,-3.44742],[-59.7128,-3.44594],[-59.7084,-3.44502],[-59.6955,-3.44312],[-59.68355,-3.44108],[-59.6826,-3.44082],[-59.67937,-3.43811],[-59.67908,-3.43746],[-59.67773,-3.4325],[-59.67659,-3.42977],[-59.67351,-3.42399],[-59.6718,-3.42193],[-59.67145,-3.42134],[-59.67031,-3.41771],[-59.67036,-3.41707],[-59.67053,-3.41676],[-59.68339,-3.39995],[-59.68536,-3.39777],[-59.68778,-3.39463],[-59.69096,-3.38885],[-59.6929,-3.38501],[-59.69348,-3.38436],[-59.69407,-3.38406],[-59.695,-3.38399],[-59.70386,-3.38576],[-59.71038,-3.38402],[-59.72031,-3.3847],[-59.72175,-3.38425],[-59.72305,-3.38299]]}},{"type":"Feature","properties":{"grupo":"candidata","codigo":"AM-350","trecho":"Estrada do Açutuba","municipio":"Iranduba","km":11.14},"geometry":{"type":"LineString","coordinates":[[-60.31154,-3.16035],[-60.31204,-3.15987],[-60.30748,-3.14383],[-60.30605,-3.13942],[-60.30607,-3.13836],[-60.30622,-3.13793],[-60.30664,-3.13753],[-60.30817,-3.13705],[-60.30854,-3.13678],[-60.31013,-3.13525],[-60.31133,-3.13435],[-60.31274,-3.13234],[-60.31544,-3.13095],[-60.31586,-3.13004],[-60.316,-3.12829],[-60.31593,-3.12704],[-60.31609,-3.12661],[-60.32263,-3.12246],[-60.32854,-3.12054],[-60.33047,-3.12024],[-60.33153,-3.12045],[-60.33253,-3.12024],[-60.33327,-3.1198],[-60.33539,-3.11726],[-60.33713,-3.1167],[-60.33963,-3.11639],[-60.34167,-3.11584],[-60.3427,-3.11522],[-60.34469,-3.11342],[-60.34582,-3.11267],[-60.34815,-3.11286],[-60.35057,-3.11409],[-60.35159,-3.11401],[-60.35193,-3.11381],[-60.35375,-3.11143],[-60.35418,-3.10807],[-60.35562,-3.10576],[-60.35553,-3.10478],[-60.3545,-3.10296],[-60.35446,-3.10252],[-60.35688,-3.09943],[-60.35696,-3.09862],[-60.35629,-3.09637]]}},{"type":"Feature","properties":{"grupo":"candidata","codigo":"AM-152","trecho":"Estrada de Paricatuba","municipio":"Iranduba","km":10.25},"geometry":{"type":"LineString","coordinates":[[-60.24615,-3.15342],[-60.24648,-3.15324],[-60.24656,-3.15306],[-60.24654,-3.15222],[-60.2459,-3.14432],[-60.2454,-3.14324],[-60.24511,-3.14292],[-60.24468,-3.14171],[-60.245,-3.13922],[-60.24461,-3.13691],[-60.24447,-3.1327],[-60.24454,-3.13004],[-60.24522,-3.1297],[-60.24723,-3.12968],[-60.24749,-3.12958],[-60.24818,-3.12859],[-60.24843,-3.12847],[-60.24942,-3.12881],[-60.25066,-3.12853],[-60.25209,-3.12798],[-60.25248,-3.12751],[-60.25299,-3.12651],[-60.25358,-3.12523],[-60.25359,-3.12484],[-60.25189,-3.12138],[-60.25033,-3.11956],[-60.24979,-3.11913],[-60.247,-3.11753],[-60.24654,-3.11699],[-60.24552,-3.11478],[-60.24477,-3.11359],[-60.24395,-3.11166],[-60.24276,-3.1112],[-60.24083,-3.11076],[-60.24014,-3.11033],[-60.23904,-3.109],[-60.23847,-3.10772],[-60.23837,-3.10714],[-60.23843,-3.10582],[-60.23873,-3.10431],[-60.23869,-3.10358],[-60.23799,-3.10276],[-60.23742,-3.10093],[-60.23655,-3.09992],[-60.23624,-3.09938],[-60.23596,-3.0984],[-60.23592,-3.0975],[-60.23608,-3.09598],[-60.238,-3.09399],[-60.23832,-3.09274],[-60.23897,-3.09189],[-60.2396,-3.08996],[-60.23955,-3.08977],[-60.23773,-3.08754],[-60.23572,-3.08666],[-60.23539,-3.08637],[-60.23468,-3.08436],[-60.23314,-3.08395],[-60.23222,-3.08332],[-60.23128,-3.08333],[-60.23049,-3.08364]]}},{"type":"Feature","properties":{"grupo":"candidata","codigo":"AM-355","trecho":"Estrada do Engenho","municipio":"Itacoatiara","km":15.92},"geometry":{"type":"LineString","coordinates":[[-59.06898,-3.09789],[-59.07004,-3.09884],[-59.0828,-3.10884],[-59.08337,-3.10919],[-59.08396,-3.10937],[-59.08648,-3.10939],[-59.08784,-3.1099],[-59.08857,-3.1104],[-59.0901,-3.11198],[-59.09103,-3.11276],[-59.09211,-3.11327],[-59.09411,-3.11385],[-59.09531,-3.11455],[-59.09948,-3.11826],[-59.10023,-3.11944],[-59.10083,-3.12098],[-59.10097,-3.12304],[-59.1007,-3.1252],[-59.10074,-3.12602],[-59.10116,-3.12759],[-59.10274,-3.13204],[-59.10301,-3.13243],[-59.10525,-3.13392],[-59.10751,-3.13578],[-59.10923,-3.13633],[-59.1188,-3.13682],[-59.12356,-3.13626],[-59.12467,-3.13625],[-59.12597,-3.13653],[-59.12702,-3.13698],[-59.12775,-3.13714],[-59.13075,-3.13572],[-59.13146,-3.13554],[-59.13217,-3.13558],[-59.13457,-3.13653],[-59.13565,-3.13648],[-59.13728,-3.13591],[-59.14038,-3.13418],[-59.14098,-3.13408],[-59.14675,-3.13465],[-59.14989,-3.1358],[-59.15077,-3.13635],[-59.15104,-3.13683],[-59.15095,-3.14094],[-59.15064,-3.14426],[-59.15052,-3.14719],[-59.1515,-3.14944],[-59.15157,-3.15057],[-59.15068,-3.16535],[-59.15105,-3.16573],[-59.15391,-3.16639],[-59.15427,-3.16744],[-59.15419,-3.16775],[-59.15389,-3.16799],[-59.14889,-3.16984]]}},{"type":"Feature","properties":{"grupo":"candidata","codigo":"AM-348","trecho":"Estrada do Novo Remanso","municipio":"Itacoatiara","km":44.79},"geometry":{"type":"LineString","coordinates":[[-59.13345,-2.91429],[-59.13414,-2.91472],[-59.13479,-2.91533],[-59.13624,-2.91694],[-59.13955,-2.9229],[-59.14009,-2.92367],[-59.14867,-2.93168],[-59.15079,-2.93373],[-59.15196,-2.93509],[-59.15339,-2.936],[-59.15492,-2.93636],[-59.15528,-2.93666],[-59.15546,-2.9378],[-59.15416,-2.9515],[-59.15465,-2.95835],[-59.15518,-2.96269],[-59.15515,-2.96356],[-59.154,-2.96933],[-59.15244,-2.9849],[-59.15144,-2.9874],[-59.13993,-3.00916],[-59.13726,-3.01364],[-59.13563,-3.01709],[-59.13385,-3.01997],[-59.12492,-3.03541],[-59.11593,-3.04982],[-59.10222,-3.07027],[-59.0819,-3.08027],[-59.08132,-3.08088],[-59.07113,-3.0968],[-59.07039,-3.09752],[-59.06953,-3.09785],[-59.06869,-3.09782],[-59.0623,-3.09615],[-59.06148,-3.09618],[-59.04516,-3.10397],[-59.04366,-3.10451],[-59.02691,-3.1076],[-59.02593,-3.10798],[-59.02503,-3.10854],[-59.02393,-3.10944],[-59.01654,-3.1165],[-59.01458,-3.11861],[-59.01202,-3.12489],[-59.00777,-3.13435],[-58.99856,-3.14708],[-58.99812,-3.14815],[-58.99664,-3.15574],[-58.99718,-3.1631],[-58.99774,-3.16393],[-59.00404,-3.16987],[-59.00441,-3.17161],[-59.0046,-3.17464],[-59.00444,-3.17736],[-59.00461,-3.17791],[-59.00502,-3.17856],[-59.02532,-3.20297],[-59.02565,-3.20374],[-59.02862,-3.21392],[-59.0285,-3.21431],[-59.02605,-3.21777],[-59.02499,-3.21874]]}}]}