{"type":"FeatureCollection","features":[{"type":"Feature","properties":{"codigo":"OAE174AMS057343W614559","tipo":"Ponte","lat":-5.73436,"lon":-61.45594,"br":"BR-174","km_aprox":723.2},"geometry":{"type":"Point","coordinates":[-61.45594,-5.73436]}},{"type":"Feature","properties":{"codigo":"OAE174AMS051968W618310","tipo":"Ponte","lat":-5.19685,"lon":-61.83105,"br":"BR-319","km_aprox":475.7},"geometry":{"type":"Point","coordinates":[-61.83105,-5.19685]}},{"type":"Feature","properties":{"codigo":"OAE174AMS049246W615020","tipo":"Ponte","lat":-4.92467,"lon":-61.50204,"br":"BR-319","km_aprox":428.1},"geometry":{"type":"Point","coordinates":[-61.50204,-4.92467]}},{"type":"Feature","properties":{"codigo":"OAE174AMS049432W615263","tipo":"Ponte","lat":-4.94324,"lon":-61.52638,"br":"BR-319","km_aprox":431.5},"geometry":{"type":"Point","coordinates":[-61.52638,-4.94324]}},{"type":"Feature","properties":{"codigo":"OAE174AMS051659W617820","tipo":"Ponte","lat":-5.16598,"lon":-61.78203,"br":"BR-319","km_aprox":469.3},"geometry":{"type":"Point","coordinates":[-61.78203,-5.16598]}},{"type":"Feature","properties":{"codigo":"OAE174AMS051576W617716","tipo":"Ponte","lat":-5.1576,"lon":-61.77163,"br":"BR-319","km_aprox":467.8},"geometry":{"type":"Point","coordinates":[-61.77163,-5.1576]}},{"type":"Feature","properties":{"codigo":"OAE174AMS051470W617590","tipo":"Ponte","lat":-5.14704,"lon":-61.75907,"br":"BR-319","km_aprox":466.0},"geometry":{"type":"Point","coordinates":[-61.75907,-5.14704]}},{"type":"Feature","properties":{"codigo":"OAE174AMS051436W617551","tipo":"Ponte","lat":-5.1437,"lon":-61.75511,"br":"BR-319","km_aprox":465.4},"geometry":{"type":"Point","coordinates":[-61.75511,-5.1437]}},{"type":"Feature","properties":{"codigo":"OAE174AMS051359W617458","tipo":"Ponte","lat":-5.13593,"lon":-61.74587,"br":"BR-319","km_aprox":464.1},"geometry":{"type":"Point","coordinates":[-61.74587,-5.13593]}},{"type":"Feature","properties":{"codigo":"OAE174AMS050998W617033","tipo":"Ponte","lat":-5.0999,"lon":-61.7034,"br":"BR-319","km_aprox":457.9},"geometry":{"type":"Point","coordinates":[-61.7034,-5.0999]}},{"type":"Feature","properties":{"codigo":"OAE174AMS050853W616874","tipo":"Ponte","lat":-5.08536,"lon":-61.68747,"br":"BR-319","km_aprox":455.4},"geometry":{"type":"Point","coordinates":[-61.68747,-5.08536]}},{"type":"Feature","properties":{"codigo":"OAE174AMS050474W616459","tipo":"Ponte","lat":-5.04741,"lon":-61.6459,"br":"BR-319","km_aprox":449.2},"geometry":{"type":"Point","coordinates":[-61.6459,-5.04741]}},{"type":"Feature","properties":{"codigo":"OAE174AMS049927W615862","tipo":"Ponte","lat":-4.9927,"lon":-61.5862,"br":"BR-174","km_aprox":836.0},"geometry":{"type":"Point","coordinates":[-61.5862,-4.9927]}},{"type":"Feature","properties":{"codigo":"OAE174AMS049636W615533","tipo":"Ponte","lat":-4.96363,"lon":-61.55335,"br":"BR-319","km_aprox":435.3},"geometry":{"type":"Point","coordinates":[-61.55335,-4.96363]}},{"type":"Feature","properties":{"codigo":"OAE174AMS049616W615507","tipo":"Ponte","lat":-4.96162,"lon":-61.55072,"br":"BR-319","km_aprox":434.9},"geometry":{"type":"Point","coordinates":[-61.55072,-4.96162]}},{"type":"Feature","properties":{"codigo":"OAE174AMS049043W614671","tipo":"Ponte de Madeira","lat":-4.9043,"lon":-61.4671,"br":"BR-319","km_aprox":423.6},"geometry":{"type":"Point","coordinates":[-61.4671,-4.9043]}},{"type":"Feature","properties":{"codigo":"OAE174AMS045159W611298","tipo":"Ponte","lat":-4.516,"lon":-61.1298,"br":"BR-319","km_aprox":365.2},"geometry":{"type":"Point","coordinates":[-61.1298,-4.516]}},{"type":"Feature","properties":{"codigo":"OAE174AMS045212W611367","tipo":"Ponte","lat":-4.52127,"lon":-61.13671,"br":"BR-174","km_aprox":48.4},"geometry":{"type":"Point","coordinates":[-61.13671,-4.52127]}},{"type":"Feature","properties":{"codigo":"OAE174AMS045580W611805","tipo":"Ponte","lat":-4.55808,"lon":-61.18058,"br":"BR-319","km_aprox":372.6},"geometry":{"type":"Point","coordinates":[-61.18058,-4.55808]}},{"type":"Feature","properties":{"codigo":"OAE319AMS041815W608071","tipo":"Ponte","lat":-4.18159,"lon":-60.8072,"br":"BR-174","km_aprox":102.2},"geometry":{"type":"Point","coordinates":[-60.8072,-4.18159]}},{"type":"Feature","properties":{"codigo":"OAE174AMS038273W603651","tipo":"Ponte","lat":-3.82739,"lon":-60.36518,"br":"BR-319","km_aprox":248.8},"geometry":{"type":"Point","coordinates":[-60.36518,-3.82739]}},{"type":"Feature","properties":{"codigo":"OAE174AMS032842W598639","tipo":"Ponte","lat":-3.28422,"lon":-59.86393,"br":"BR-319","km_aprox":156.3},"geometry":{"type":"Point","coordinates":[-59.86393,-3.28422]}},{"type":"Feature","properties":{"codigo":"OAE174AMS032152W598688","tipo":"Ponte","lat":-3.21526,"lon":-59.86885,"br":"BR-319","km_aprox":566.6},"geometry":{"type":"Point","coordinates":[-59.86885,-3.21526]}},{"type":"Feature","properties":{"codigo":"OAE174AMS032753W598546","tipo":"Ponte","lat":-3.27532,"lon":-59.85467,"br":"BR-174","km_aprox":257.0},"geometry":{"type":"Point","coordinates":[-59.85467,-3.27532]}},{"type":"Feature","properties":{"codigo":"OAE174AMS027097W600484","tipo":"Ponte","lat":-2.7097,"lon":-60.04845,"br":"BR-174","km_aprox":964.8},"geometry":{"type":"Point","coordinates":[-60.04845,-2.7097]}},{"type":"Feature","properties":{"codigo":"OAE174AMS025853W600320","tipo":"Ponte","lat":-2.58532,"lon":-60.03204,"br":"BR-174","km_aprox":978.9},"geometry":{"type":"Point","coordinates":[-60.03204,-2.58532]}},{"type":"Feature","properties":{"codigo":"OAE174AMS022556W600358","tipo":"Ponte","lat":-2.25562,"lon":-60.03581,"br":"BR-174","km_aprox":257.0},"geometry":{"type":"Point","coordinates":[-60.03581,-2.25562]}},{"type":"Feature","properties":{"codigo":"OAE174AMS021137W599914","tipo":"Ponte","lat":-2.1137,"lon":-59.99147,"br":"BR-174","km_aprox":1016.5},"geometry":{"type":"Point","coordinates":[-59.99147,-2.1137]}},{"type":"Feature","properties":{"codigo":"OAE174AMS020475W600259","tipo":"Ponte","lat":-2.04752,"lon":-60.026,"br":"BR-174","km_aprox":1077.6},"geometry":{"type":"Point","coordinates":[-60.026,-2.04752]}},{"type":"Feature","properties":{"codigo":"OAE174AMS019941W600267","tipo":"Ponte","lat":-1.9941,"lon":-60.02671,"br":"BR-174","km_aprox":1083.6},"geometry":{"type":"Point","coordinates":[-60.02671,-1.9941]}},{"type":"Feature","properties":{"codigo":"OAE174AMS019056W600619","tipo":"Ponte","lat":-1.90569,"lon":-60.0619,"br":"BR-174","km_aprox":1094.2},"geometry":{"type":"Point","coordinates":[-60.0619,-1.90569]}},{"type":"Feature","properties":{"codigo":"OAE174AMS018383W601153","tipo":"Ponte","lat":-1.83834,"lon":-60.1154,"br":"BR-174","km_aprox":1104.2},"geometry":{"type":"Point","coordinates":[-60.1154,-1.83834]}},{"type":"Feature","properties":{"codigo":"OAE174AMS018247W601368","tipo":"Ponte","lat":-1.82474,"lon":-60.13686,"br":"BR-174","km_aprox":1107.0},"geometry":{"type":"Point","coordinates":[-60.13686,-1.82474]}},{"type":"Feature","properties":{"codigo":"OAE174AMS015348W602382","tipo":"Ponte","lat":-1.53482,"lon":-60.23827,"br":"BR-174","km_aprox":1020.6},"geometry":{"type":"Point","coordinates":[-60.23827,-1.53482]}},{"type":"Feature","properties":{"codigo":"OAE174AMS015167W602473","tipo":"Ponte","lat":-1.51673,"lon":-60.24731,"br":"BR-174","km_aprox":0.8},"geometry":{"type":"Point","coordinates":[-60.24731,-1.51673]}},{"type":"Feature","properties":{"codigo":"OAE174AMS014719W602775","tipo":"Ponte","lat":-1.47196,"lon":-60.27755,"br":"BR-174","km_aprox":1026.3},"geometry":{"type":"Point","coordinates":[-60.27755,-1.47196]}},{"type":"Feature","properties":{"codigo":"OAE174AMS012068W604314","tipo":"Ponte","lat":-1.20686,"lon":-60.43144,"br":"BR-174","km_aprox":1061.6},"geometry":{"type":"Point","coordinates":[-60.43144,-1.20686]}},{"type":"Feature","properties":{"codigo":"OAE174AMS011135W604572","tipo":"Ponte","lat":-1.11356,"lon":-60.45722,"br":"BR-174","km_aprox":1072.4},"geometry":{"type":"Point","coordinates":[-60.45722,-1.11356]}},{"type":"Feature","properties":{"codigo":"OAE174AMS010843W604633","tipo":"Ponte","lat":-1.08439,"lon":-60.46339,"br":"BR-174","km_aprox":1075.8},"geometry":{"type":"Point","coordinates":[-60.46339,-1.08439]}},{"type":"Feature","properties":{"codigo":"OAE174AMS010685W604683","tipo":"Ponte","lat":-1.06857,"lon":-60.46835,"br":"BR-174","km_aprox":1142.3},"geometry":{"type":"Point","coordinates":[-60.46835,-1.06857]}},{"type":"Feature","properties":{"codigo":"OAE174AMS012582W604068","tipo":"Ponte","lat":-1.25824,"lon":-60.40684,"br":"BR-174","km_aprox":1055.1},"geometry":{"type":"Point","coordinates":[-60.40684,-1.25824]}},{"type":"Feature","properties":{"codigo":"OAE174AMS010249W604815","tipo":"Ponte","lat":-1.02496,"lon":-60.48159,"br":"BR-174","km_aprox":1147.4},"geometry":{"type":"Point","coordinates":[-60.48159,-1.02496]}},{"type":"Feature","properties":{"codigo":"OAE174AMS009912W604913","tipo":"Ponte","lat":-0.99125,"lon":-60.49131,"br":"BR-174","km_aprox":6.9},"geometry":{"type":"Point","coordinates":[-60.49131,-0.99125]}},{"type":"Feature","properties":{"codigo":"OAE174AMS008721W605144","tipo":"Ponte","lat":-0.87211,"lon":-60.51449,"br":"BR-174","km_aprox":1151.3},"geometry":{"type":"Point","coordinates":[-60.51449,-0.87211]}},{"type":"Feature","properties":{"codigo":"OAE174AMS008600W605195","tipo":"Ponte","lat":-0.86001,"lon":-60.51959,"br":"BR-174","km_aprox":1152.8},"geometry":{"type":"Point","coordinates":[-60.51959,-0.86001]}},{"type":"Feature","properties":{"codigo":"OAE230AMS064213W582921","tipo":"Ponte","lat":-6.42137,"lon":-58.29218,"br":"BR-230","km_aprox":824.1},"geometry":{"type":"Point","coordinates":[-58.29218,-6.42137]}},{"type":"Feature","properties":{"codigo":"OAE230AMS064293W583299","tipo":"Ponte","lat":-6.42934,"lon":-58.32993,"br":"BR-230","km_aprox":828.9},"geometry":{"type":"Point","coordinates":[-58.32993,-6.42934]}},{"type":"Feature","properties":{"codigo":"OAE230AMS064678W583520","tipo":"Ponte","lat":-6.46787,"lon":-58.3521,"br":"BR-230","km_aprox":834.2},"geometry":{"type":"Point","coordinates":[-58.3521,-6.46787]}},{"type":"Feature","properties":{"codigo":"OAE230AMS064740W583661","tipo":"Ponte","lat":-6.47401,"lon":-58.36613,"br":"BR-230","km_aprox":835.9},"geometry":{"type":"Point","coordinates":[-58.36613,-6.47401]}},{"type":"Feature","properties":{"codigo":"OAE230AMS065088W584333","tipo":"Ponte","lat":-6.50887,"lon":-58.43336,"br":"BR-230","km_aprox":869.5},"geometry":{"type":"Point","coordinates":[-58.43336,-6.50887]}},{"type":"Feature","properties":{"codigo":"OAE230AMS065347W585444","tipo":"Ponte","lat":-6.53477,"lon":-58.54449,"br":"BR-230","km_aprox":882.6},"geometry":{"type":"Point","coordinates":[-58.54449,-6.53477]}},{"type":"Feature","properties":{"codigo":"OAE230AMS065824W586002","tipo":"Ponte","lat":-6.58249,"lon":-58.60026,"br":"BR-230","km_aprox":1008.8},"geometry":{"type":"Point","coordinates":[-58.60026,-6.58249]}},{"type":"Feature","properties":{"codigo":"OAE230AMS066309W586833","tipo":"Ponte","lat":-6.63097,"lon":-58.6833,"br":"BR-230","km_aprox":1019.9},"geometry":{"type":"Point","coordinates":[-58.6833,-6.63097]}},{"type":"Feature","properties":{"codigo":"OAE230AMS066783W587986","tipo":"Ponte","lat":-6.67833,"lon":-58.7987,"br":"BR-230","km_aprox":1033.8},"geometry":{"type":"Point","coordinates":[-58.7987,-6.67833]}},{"type":"Feature","properties":{"codigo":"OAE230AMS066980W588614","tipo":"Ponte","lat":-6.69807,"lon":-58.86142,"br":"BR-230","km_aprox":1041.3},"geometry":{"type":"Point","coordinates":[-58.86142,-6.69807]}},{"type":"Feature","properties":{"codigo":"OAE230AMS067086W588934","tipo":"Ponte","lat":-6.70861,"lon":-58.89349,"br":"BR-230","km_aprox":1045.1},"geometry":{"type":"Point","coordinates":[-58.89349,-6.70861]}},{"type":"Feature","properties":{"codigo":"OAE230AMS068237W591511","tipo":"Ponte","lat":-6.82376,"lon":-59.15117,"br":"BR-230","km_aprox":752.8},"geometry":{"type":"Point","coordinates":[-59.15117,-6.82376]}},{"type":"Feature","properties":{"codigo":"OAE230AMS068350W591710","tipo":"Ponte","lat":-6.83509,"lon":-59.1711,"br":"BR-230","km_aprox":755.4},"geometry":{"type":"Point","coordinates":[-59.1711,-6.83509]}},{"type":"Feature","properties":{"codigo":"OAE230AMS069333W593291","tipo":"Ponte","lat":-6.9334,"lon":-59.32915,"br":"BR-230","km_aprox":776.4},"geometry":{"type":"Point","coordinates":[-59.32915,-6.9334]}},{"type":"Feature","properties":{"codigo":"OAE230AMS070641W595763","tipo":"Ponte","lat":-7.06413,"lon":-59.57634,"br":"BR-230","km_aprox":809.0},"geometry":{"type":"Point","coordinates":[-59.57634,-7.06413]}},{"type":"Feature","properties":{"codigo":"OAE230AMS070877W596440","tipo":"Ponte","lat":-7.0878,"lon":-59.64407,"br":"BR-230","km_aprox":1066.8},"geometry":{"type":"Point","coordinates":[-59.64407,-7.0878]}},{"type":"Feature","properties":{"codigo":"OAE230AMS071034W596912","tipo":"Ponte","lat":-7.10348,"lon":-59.69126,"br":"BR-230","km_aprox":839.4},"geometry":{"type":"Point","coordinates":[-59.69126,-7.10348]}},{"type":"Feature","properties":{"codigo":"OAE230AMS071048W597110","tipo":"Ponte","lat":-7.10489,"lon":-59.71106,"br":"BR-230","km_aprox":841.8},"geometry":{"type":"Point","coordinates":[-59.71106,-7.10489]}},{"type":"Feature","properties":{"codigo":"OAE230AMS072121W599221","tipo":"Ponte","lat":-7.21214,"lon":-59.92218,"br":"BR-230","km_aprox":1077.8},"geometry":{"type":"Point","coordinates":[-59.92218,-7.21214]}},{"type":"Feature","properties":{"codigo":"OAE230AMS072320W599494","tipo":"Ponte","lat":-7.23202,"lon":-59.94948,"br":"BR-230","km_aprox":1081.9},"geometry":{"type":"Point","coordinates":[-59.94948,-7.23202]}},{"type":"Feature","properties":{"codigo":"OAE230AMS072334W599614","tipo":"Ponte","lat":-7.2334,"lon":-59.9614,"br":"BR-230","km_aprox":1083.3},"geometry":{"type":"Point","coordinates":[-59.9614,-7.2334]}},{"type":"Feature","properties":{"codigo":"OAE230AMS072312W599816","tipo":"Ponte","lat":-7.23123,"lon":-59.9816,"br":"BR-230","km_aprox":1085.8},"geometry":{"type":"Point","coordinates":[-59.9816,-7.23123]}},{"type":"Feature","properties":{"codigo":"OAE230AMS072123W599062","tipo":"Ponte","lat":-7.2123,"lon":-59.90623,"br":"BR-230","km_aprox":1075.4},"geometry":{"type":"Point","coordinates":[-59.90623,-7.2123]}},{"type":"Feature","properties":{"codigo":"OAE230AMS072788W600567","tipo":"Ponte","lat":-7.27882,"lon":-60.05677,"br":"BR-230","km_aprox":1096.4},"geometry":{"type":"Point","coordinates":[-60.05677,-7.27882]}},{"type":"Feature","properties":{"codigo":"OAE230AMS073673W602874","tipo":"Ponte","lat":-7.36738,"lon":-60.28749,"br":"BR-230","km_aprox":1124.7},"geometry":{"type":"Point","coordinates":[-60.28749,-7.36738]}},{"type":"Feature","properties":{"codigo":"OAE230AMS073844W603255","tipo":"Ponte","lat":-7.38449,"lon":-60.32559,"br":"BR-230","km_aprox":1129.6},"geometry":{"type":"Point","coordinates":[-60.32559,-7.38449]}},{"type":"Feature","properties":{"codigo":"OAE230AMS074056W603787","tipo":"Ponte","lat":-7.40566,"lon":-60.37871,"br":"BR-230","km_aprox":1136.6},"geometry":{"type":"Point","coordinates":[-60.37871,-7.40566]}},{"type":"Feature","properties":{"codigo":"OAE230AMS074169W603900","tipo":"Ponte","lat":-7.41697,"lon":-60.39003,"br":"BR-230","km_aprox":1138.4},"geometry":{"type":"Point","coordinates":[-60.39003,-7.41697]}},{"type":"Feature","properties":{"codigo":"OAE230AMS074406W604408","tipo":"Ponte","lat":-7.44064,"lon":-60.44089,"br":"BR-230","km_aprox":1144.8},"geometry":{"type":"Point","coordinates":[-60.44089,-7.44064]}},{"type":"Feature","properties":{"codigo":"OAE230AMS074636W605049","tipo":"Ponte","lat":-7.46369,"lon":-60.50493,"br":"BR-230","km_aprox":1152.6},"geometry":{"type":"Point","coordinates":[-60.50493,-7.46369]}},{"type":"Feature","properties":{"codigo":"OAE230AMS075176W606490","tipo":"Ponte","lat":-7.51768,"lon":-60.64909,"br":"BR-230","km_aprox":1170.6},"geometry":{"type":"Point","coordinates":[-60.64909,-7.51768]}},{"type":"Feature","properties":{"codigo":"OAE230AMS076421W608304","tipo":"Ponte","lat":-7.64213,"lon":-60.83048,"br":"BR-230","km_aprox":1196.3},"geometry":{"type":"Point","coordinates":[-60.83048,-7.64213]}},{"type":"Feature","properties":{"codigo":"OAE230AMS076498W608590","tipo":"Ponte","lat":-7.64988,"lon":-60.85902,"br":"BR-230","km_aprox":1199.7},"geometry":{"type":"Point","coordinates":[-60.85902,-7.64988]}},{"type":"Feature","properties":{"codigo":"OAE230AMS075936W607558","tipo":"Ponte","lat":-7.59369,"lon":-60.75581,"br":"BR-230","km_aprox":1186.0},"geometry":{"type":"Point","coordinates":[-60.75581,-7.59369]}},{"type":"Feature","properties":{"codigo":"OAE230AMS076787W609049","tipo":"Ponte","lat":-7.67873,"lon":-60.90493,"br":"BR-230","km_aprox":1205.9},"geometry":{"type":"Point","coordinates":[-60.90493,-7.67873]}},{"type":"Feature","properties":{"codigo":"OAE230AMS076864W609531","tipo":"Ponte","lat":-7.6864,"lon":-60.95315,"br":"BR-230","km_aprox":1211.4},"geometry":{"type":"Point","coordinates":[-60.95315,-7.6864]}},{"type":"Feature","properties":{"codigo":"OAE230AMS077051W610050","tipo":"Ponte","lat":-7.70515,"lon":-61.00508,"br":"BR-230","km_aprox":1218.0},"geometry":{"type":"Point","coordinates":[-61.00508,-7.70515]}},{"type":"Feature","properties":{"codigo":"OAE230AMS077070W610193","tipo":"Ponte","lat":-7.70709,"lon":-61.01932,"br":"BR-230","km_aprox":1219.7},"geometry":{"type":"Point","coordinates":[-61.01932,-7.70709]}},{"type":"Feature","properties":{"codigo":"OAE230AMS077242W610650","tipo":"Ponte","lat":-7.72429,"lon":-61.06504,"br":"BR-230","km_aprox":1225.3},"geometry":{"type":"Point","coordinates":[-61.06504,-7.72429]}},{"type":"Feature","properties":{"codigo":"OAE230AMS077583W611323","tipo":"Ponte","lat":-7.75836,"lon":-61.13237,"br":"BR-230","km_aprox":1233.8},"geometry":{"type":"Point","coordinates":[-61.13237,-7.75836]}},{"type":"Feature","properties":{"codigo":"OAE230AMS078559W613398","tipo":"Ponte","lat":-7.85599,"lon":-61.3399,"br":"BR-230","km_aprox":1259.7},"geometry":{"type":"Point","coordinates":[-61.3399,-7.85599]}},{"type":"Feature","properties":{"codigo":"OAE230AMS077776W611717","tipo":"Ponte","lat":-7.77764,"lon":-61.17179,"br":"BR-230","km_aprox":1238.9},"geometry":{"type":"Point","coordinates":[-61.17179,-7.77764]}},{"type":"Feature","properties":{"codigo":"OAE230AMS079126W615442","tipo":"Ponte","lat":-7.91266,"lon":-61.54425,"br":"BR-230","km_aprox":1283.2},"geometry":{"type":"Point","coordinates":[-61.54425,-7.91266]}},{"type":"Feature","properties":{"codigo":"OAE230AMS078687W613916","tipo":"Ponte","lat":-7.86873,"lon":-61.39168,"br":"BR-230","km_aprox":1265.5},"geometry":{"type":"Point","coordinates":[-61.39168,-7.86873]}},{"type":"Feature","properties":{"codigo":"OAE230AMS079703W616699","tipo":"Ponte","lat":-7.97032,"lon":-61.66997,"br":"BR-230","km_aprox":1299.0},"geometry":{"type":"Point","coordinates":[-61.66997,-7.97032]}},{"type":"Feature","properties":{"codigo":"OAE230AMS080047W617683","tipo":"Ponte","lat":-8.00473,"lon":-61.76833,"br":"BR-230","km_aprox":1311.1},"geometry":{"type":"Point","coordinates":[-61.76833,-8.00473]}},{"type":"Feature","properties":{"codigo":"OAE230AMS079861W616873","tipo":"Ponte","lat":-7.98614,"lon":-61.68731,"br":"BR-230","km_aprox":1301.8},"geometry":{"type":"Point","coordinates":[-61.68731,-7.98614]}},{"type":"Feature","properties":{"codigo":"OAE230AMS080154W618552","tipo":"Ponte","lat":-8.01541,"lon":-61.85524,"br":"BR-230","km_aprox":1323.6},"geometry":{"type":"Point","coordinates":[-61.85524,-8.01541]}},{"type":"Feature","properties":{"codigo":"OAE230AMS079590W620504","tipo":"Ponte","lat":-7.95906,"lon":-62.0504,"br":"BR-230","km_aprox":885.5},"geometry":{"type":"Point","coordinates":[-62.0504,-7.95906]}},{"type":"Feature","properties":{"codigo":"OAE230AMS078508W622728","tipo":"Ponte","lat":-7.85087,"lon":-62.27285,"br":"BR-230","km_aprox":913.1},"geometry":{"type":"Point","coordinates":[-62.27285,-7.85087]}},{"type":"Feature","properties":{"codigo":"OAE230AMS079308W621192","tipo":"Ponte","lat":-7.93082,"lon":-62.11923,"br":"BR-230","km_aprox":893.8},"geometry":{"type":"Point","coordinates":[-62.11923,-7.93082]}},{"type":"Feature","properties":{"codigo":"OAE230AMS078340W622970","tipo":"Ponte","lat":-7.83403,"lon":-62.29708,"br":"BR-230","km_aprox":916.5},"geometry":{"type":"Point","coordinates":[-62.29708,-7.83403]}},{"type":"Feature","properties":{"codigo":"OAE230AMS077324W624942","tipo":"Ponte","lat":-7.73245,"lon":-62.49427,"br":"BR-230","km_aprox":941.6},"geometry":{"type":"Point","coordinates":[-62.49427,-7.73245]}},{"type":"Feature","properties":{"codigo":"OAE230AMS078073W623445","tipo":"Ponte","lat":-7.80736,"lon":-62.34452,"br":"BR-230","km_aprox":922.7},"geometry":{"type":"Point","coordinates":[-62.34452,-7.80736]}},{"type":"Feature","properties":{"codigo":"OAE230AMS076200W626828","tipo":"Ponte","lat":-7.62002,"lon":-62.68288,"br":"BR-230","km_aprox":966.0},"geometry":{"type":"Point","coordinates":[-62.68288,-7.62002]}},{"type":"Feature","properties":{"codigo":"OAE230AMS076320W626630","tipo":"Ponte","lat":-7.63203,"lon":-62.66305,"br":"BR-230","km_aprox":963.4},"geometry":{"type":"Point","coordinates":[-62.66305,-7.63203]}},{"type":"Feature","properties":{"codigo":"OAE230AMS075924W627460","tipo":"Ponte","lat":-7.59249,"lon":-62.74601,"br":"BR-230","km_aprox":973.7},"geometry":{"type":"Point","coordinates":[-62.74601,-7.59249]}},{"type":"Feature","properties":{"codigo":"OAE230AMS075574W628657","tipo":"Ponte","lat":-7.55744,"lon":-62.86574,"br":"BR-230","km_aprox":987.8},"geometry":{"type":"Point","coordinates":[-62.86574,-7.55744]}},{"type":"Feature","properties":{"codigo":"OAE230AMS074875W629666","tipo":"Ponte","lat":-7.48757,"lon":-62.96669,"br":"BR-230","km_aprox":1318.9},"geometry":{"type":"Point","coordinates":[-62.96669,-7.48757]}},{"type":"Feature","properties":{"codigo":"OAE230AMS074878W629896","tipo":"Ponte","lat":-7.48785,"lon":-62.98969,"br":"BR-230","km_aprox":1348.8},"geometry":{"type":"Point","coordinates":[-62.98969,-7.48785]}},{"type":"Feature","properties":{"codigo":"OAE230AMS075736W631115","tipo":"Ponte de Madeira","lat":-7.5737,"lon":-63.11153,"br":"BR-230","km_aprox":1467.1},"geometry":{"type":"Point","coordinates":[-63.11153,-7.5737]}},{"type":"Feature","properties":{"codigo":"OAE230AMS075938W631750","tipo":"Ponte","lat":-7.59381,"lon":-63.17502,"br":"BR-230","km_aprox":1474.5},"geometry":{"type":"Point","coordinates":[-63.17502,-7.59381]}},{"type":"Feature","properties":{"codigo":"OAE230AMS074970W636087","tipo":"Ponte","lat":-7.49703,"lon":-63.60875,"br":"BR-230","km_aprox":1382.6},"geometry":{"type":"Point","coordinates":[-63.60875,-7.49703]}},{"type":"Feature","properties":{"codigo":"OAE319AMS034507W600049","tipo":"Ponte","lat":-3.45075,"lon":-60.00493,"br":"BR-319","km_aprox":187.1},"geometry":{"type":"Point","coordinates":[-60.00493,-3.45075]}},{"type":"Feature","properties":{"codigo":"OAE319AMS045961W612179","tipo":"Ponte","lat":-4.59619,"lon":-61.21796,"br":"BR-319","km_aprox":378.5},"geometry":{"type":"Point","coordinates":[-61.21796,-4.59619]}},{"type":"Feature","properties":{"codigo":"OAE319AMS046520W612640","tipo":"Ponte","lat":-4.6521,"lon":-61.26406,"br":"BR-319","km_aprox":386.6},"geometry":{"type":"Point","coordinates":[-61.26406,-4.6521]}},{"type":"Feature","properties":{"codigo":"OAE319AMS047364W613028","tipo":"Ponte","lat":-4.73648,"lon":-61.30289,"br":"BR-319","km_aprox":397.0},"geometry":{"type":"Point","coordinates":[-61.30289,-4.73648]}},{"type":"Feature","properties":{"codigo":"OAE319AMS047923W613508","tipo":"Ponte","lat":-4.79234,"lon":-61.35083,"br":"BR-319","km_aprox":405.3},"geometry":{"type":"Point","coordinates":[-61.35083,-4.79234]}},{"type":"Feature","properties":{"codigo":"OAE319AMS048391W614028","tipo":"Ponte","lat":-4.83919,"lon":-61.40285,"br":"BR-174","km_aprox":863.0},"geometry":{"type":"Point","coordinates":[-61.40285,-4.83919]}},{"type":"Feature","properties":{"codigo":"OAE319AMS048497W614142","tipo":"Ponte","lat":-4.84973,"lon":-61.41423,"br":"BR-319","km_aprox":414.9},"geometry":{"type":"Point","coordinates":[-61.41423,-4.84973]}},{"type":"Feature","properties":{"codigo":"OAE319AMS048744W614326","tipo":"Ponte","lat":-4.87445,"lon":-61.43263,"br":"BR-174","km_aprox":857.8},"geometry":{"type":"Point","coordinates":[-61.43263,-4.87445]}},{"type":"Feature","properties":{"codigo":"OAE319AMS048762W614337","tipo":"Ponte","lat":-4.87626,"lon":-61.43371,"br":"BR-174","km_aprox":857.5},"geometry":{"type":"Point","coordinates":[-61.43371,-4.87626]}},{"type":"Feature","properties":{"codigo":"OAE319AMS047110W612921","tipo":"Ponte","lat":-4.71108,"lon":-61.29214,"br":"BR-319","km_aprox":394.0},"geometry":{"type":"Point","coordinates":[-61.29214,-4.71108]}},{"type":"Feature","properties":{"codigo":"OAE319AMS053175W620005","tipo":"Ponte","lat":-5.31755,"lon":-62.00057,"br":"BR-319","km_aprox":499.3},"geometry":{"type":"Point","coordinates":[-62.00057,-5.31755]}},{"type":"Feature","properties":{"codigo":"OAE319AMS053064W619718","tipo":"Ponte","lat":-5.30649,"lon":-61.97188,"br":"BR-319","km_aprox":495.8},"geometry":{"type":"Point","coordinates":[-61.97188,-5.30649]}},{"type":"Feature","properties":{"codigo":"OAE319AMS052821W619292","tipo":"Ponte","lat":-5.28216,"lon":-61.92929,"br":"BR-319","km_aprox":490.3},"geometry":{"type":"Point","coordinates":[-61.92929,-5.28216]}},{"type":"Feature","properties":{"codigo":"OAE319AMS052600W619067","tipo":"Ponte","lat":-5.26009,"lon":-61.90673,"br":"BR-319","km_aprox":486.8},"geometry":{"type":"Point","coordinates":[-61.90673,-5.26009]}},{"type":"Feature","properties":{"codigo":"OAE319AMS052566W619031","tipo":"Ponte","lat":-5.25661,"lon":-61.90317,"br":"BR-319","km_aprox":486.2},"geometry":{"type":"Point","coordinates":[-61.90317,-5.25661]}},{"type":"Feature","properties":{"codigo":"OAE319AMS052547W619012","tipo":"Ponte","lat":-5.25475,"lon":-61.90127,"br":"BR-319","km_aprox":485.9},"geometry":{"type":"Point","coordinates":[-61.90127,-5.25475]}},{"type":"Feature","properties":{"codigo":"OAE319AMS052279W618739","tipo":"Ponte","lat":-5.22799,"lon":-61.87394,"br":"BR-319","km_aprox":481.7},"geometry":{"type":"Point","coordinates":[-61.87394,-5.22799]}},{"type":"Feature","properties":{"codigo":"OAE319AMS052239W618697","tipo":"Ponte","lat":-5.22391,"lon":-61.86975,"br":"BR-319","km_aprox":481.0},"geometry":{"type":"Point","coordinates":[-61.86975,-5.22391]}},{"type":"Feature","properties":{"codigo":"OAE319AMS052127W618562","tipo":"Ponte","lat":-5.21271,"lon":-61.85627,"br":"BR-319","km_aprox":479.1},"geometry":{"type":"Point","coordinates":[-61.85627,-5.21271]}},{"type":"Feature","properties":{"codigo":"OAE319AMS053053W619689","tipo":"Ponte","lat":-5.30536,"lon":-61.96897,"br":"BR-319","km_aprox":495.5},"geometry":{"type":"Point","coordinates":[-61.96897,-5.30536]}},{"type":"Feature","properties":{"codigo":"OAE319AMS052869W619341","tipo":"Ponte","lat":-5.28692,"lon":-61.93419,"br":"BR-319","km_aprox":491.1},"geometry":{"type":"Point","coordinates":[-61.93419,-5.28692]}},{"type":"Feature","properties":{"codigo":"OAE319AMS054332W620897","tipo":"Ponte","lat":-5.43325,"lon":-62.08973,"br":"BR-319","km_aprox":515.7},"geometry":{"type":"Point","coordinates":[-62.08973,-5.43325]}},{"type":"Feature","properties":{"codigo":"OAE319AMS054295W620878","tipo":"Ponte","lat":-5.42953,"lon":-62.08787,"br":"BR-319","km_aprox":515.3},"geometry":{"type":"Point","coordinates":[-62.08787,-5.42953]}},{"type":"Feature","properties":{"codigo":"OAE319AMS054236W620849","tipo":"Ponte","lat":-5.42361,"lon":-62.08496,"br":"BR-319","km_aprox":514.5},"geometry":{"type":"Point","coordinates":[-62.08496,-5.42361]}},{"type":"Feature","properties":{"codigo":"OAE319AMS053559W620370","tipo":"Ponte","lat":-5.35598,"lon":-62.037,"br":"BR-319","km_aprox":505.3},"geometry":{"type":"Point","coordinates":[-62.037,-5.35598]}},{"type":"Feature","properties":{"codigo":"OAE319AMS053424W620270","tipo":"Ponte","lat":-5.34242,"lon":-62.02701,"br":"BR-319","km_aprox":503.4},"geometry":{"type":"Point","coordinates":[-62.02701,-5.34242]}},{"type":"Feature","properties":{"codigo":"OAE319AMS053724W620491","tipo":"Ponte","lat":-5.37244,"lon":-62.04917,"br":"BR-319","km_aprox":507.6},"geometry":{"type":"Point","coordinates":[-62.04917,-5.37244]}},{"type":"Feature","properties":{"codigo":"OAE319AMS053461W620296","tipo":"Ponte","lat":-5.34611,"lon":-62.02967,"br":"BR-319","km_aprox":503.9},"geometry":{"type":"Point","coordinates":[-62.02967,-5.34611]}},{"type":"Feature","properties":{"codigo":"OAE319AMS053373W620233","tipo":"Ponte","lat":-5.33739,"lon":-62.02333,"br":"BR-319","km_aprox":502.7},"geometry":{"type":"Point","coordinates":[-62.02333,-5.33739]}},{"type":"Feature","properties":{"codigo":"OAE319AMS058174W623323","tipo":"Ponte","lat":-5.81748,"lon":-62.33231,"br":"BR-319","km_aprox":49.8},"geometry":{"type":"Point","coordinates":[-62.33231,-5.81748]}},{"type":"Feature","properties":{"codigo":"OAE319AMS057882W623115","tipo":"Ponte","lat":-5.78826,"lon":-62.31155,"br":"BR-319","km_aprox":562.6},"geometry":{"type":"Point","coordinates":[-62.31155,-5.78826]}},{"type":"Feature","properties":{"codigo":"OAE319AMS057748W623024","tipo":"Ponte","lat":-5.7749,"lon":-62.30246,"br":"BR-319","km_aprox":560.8},"geometry":{"type":"Point","coordinates":[-62.30246,-5.7749]}},{"type":"Feature","properties":{"codigo":"OAE319AMS057595W622920","tipo":"Ponte","lat":-5.75956,"lon":-62.29205,"br":"BR-319","km_aprox":558.7},"geometry":{"type":"Point","coordinates":[-62.29205,-5.75956]}},{"type":"Feature","properties":{"codigo":"OAE319AMS057379W622780","tipo":"Ponte","lat":-5.73798,"lon":-62.27801,"br":"BR-319","km_aprox":555.8},"geometry":{"type":"Point","coordinates":[-62.27801,-5.73798]}},{"type":"Feature","properties":{"codigo":"OAE319AMS056533W622248","tipo":"Ponte","lat":-5.65332,"lon":-62.2248,"br":"BR-319","km_aprox":544.7},"geometry":{"type":"Point","coordinates":[-62.2248,-5.65332]}},{"type":"Feature","properties":{"codigo":"OAE319AMS056410W622170","tipo":"Ponte","lat":-5.64102,"lon":-62.2171,"br":"BR-319","km_aprox":543.1},"geometry":{"type":"Point","coordinates":[-62.2171,-5.64102]}},{"type":"Feature","properties":{"codigo":"OAE319AMS056110W621982","tipo":"Ponte","lat":-5.61105,"lon":-62.19825,"br":"BR-319","km_aprox":539.1},"geometry":{"type":"Point","coordinates":[-62.19825,-5.61105]}},{"type":"Feature","properties":{"codigo":"OAE319AMS056103W621978","tipo":"Ponte","lat":-5.61036,"lon":-62.19782,"br":"BR-319","km_aprox":539.0},"geometry":{"type":"Point","coordinates":[-62.19782,-5.61036]}},{"type":"Feature","properties":{"codigo":"OAE319AMS056071W621958","tipo":"Ponte","lat":-5.60717,"lon":-62.19582,"br":"BR-319","km_aprox":538.6},"geometry":{"type":"Point","coordinates":[-62.19582,-5.60717]}},{"type":"Feature","properties":{"codigo":"OAE319AMS055914W621859","tipo":"Ponte","lat":-5.59141,"lon":-62.18595,"br":"BR-319","km_aprox":536.5},"geometry":{"type":"Point","coordinates":[-62.18595,-5.59141]}},{"type":"Feature","properties":{"codigo":"OAE319AMS055618W621673","tipo":"Ponte","lat":-5.56182,"lon":-62.16734,"br":"BR-319","km_aprox":532.6},"geometry":{"type":"Point","coordinates":[-62.16734,-5.56182]}},{"type":"Feature","properties":{"codigo":"OAE319AMS055534W621620","tipo":"Ponte","lat":-5.55349,"lon":-62.16207,"br":"BR-319","km_aprox":531.5},"geometry":{"type":"Point","coordinates":[-62.16207,-5.55349]}},{"type":"Feature","properties":{"codigo":"OAE319AMS055425W621540","tipo":"Ponte","lat":-5.54252,"lon":-62.15402,"br":"BR-319","km_aprox":530.0},"geometry":{"type":"Point","coordinates":[-62.15402,-5.54252]}},{"type":"Feature","properties":{"codigo":"OAE319AMS055218W621362","tipo":"Ponte","lat":-5.52185,"lon":-62.13628,"br":"BR-319","km_aprox":527.0},"geometry":{"type":"Point","coordinates":[-62.13628,-5.52185]}},{"type":"Feature","properties":{"codigo":"OAE319AMS055032W621236","tipo":"Ponte","lat":-5.50329,"lon":-62.1236,"br":"BR-319","km_aprox":524.5},"geometry":{"type":"Point","coordinates":[-62.1236,-5.50329]}},{"type":"Feature","properties":{"codigo":"OAE319AMS054584W621018","tipo":"Ponte de Madeira","lat":-5.45842,"lon":-62.10187,"br":"BR-319","km_aprox":518.9},"geometry":{"type":"Point","coordinates":[-62.10187,-5.45842]}},{"type":"Feature","properties":{"codigo":"OAE319AMS058297W623437","tipo":"Ponte de Madeira","lat":-5.82971,"lon":-62.34376,"br":"BR-319","km_aprox":51.7},"geometry":{"type":"Point","coordinates":[-62.34376,-5.82971]}},{"type":"Feature","properties":{"codigo":"OAE319AMS060460W625371","tipo":"Ponte","lat":-6.04609,"lon":-62.53711,"br":"BR-319","km_aprox":84.3},"geometry":{"type":"Point","coordinates":[-62.53711,-6.04609]}},{"type":"Feature","properties":{"codigo":"OAE319AMS060171W625193","tipo":"Ponte","lat":-6.01715,"lon":-62.51937,"br":"BR-319","km_aprox":80.5},"geometry":{"type":"Point","coordinates":[-62.51937,-6.01715]}},{"type":"Feature","properties":{"codigo":"OAE319AMS059639W624823","tipo":"Ponte","lat":-5.96395,"lon":-62.48233,"br":"BR-319","km_aprox":73.2},"geometry":{"type":"Point","coordinates":[-62.48233,-5.96395]}},{"type":"Feature","properties":{"codigo":"OAE319AMS059081W624172","tipo":"Ponte","lat":-5.90816,"lon":-62.41725,"br":"BR-319","km_aprox":63.6},"geometry":{"type":"Point","coordinates":[-62.41725,-5.90816]}},{"type":"Feature","properties":{"codigo":"OAE319AMS058903W624006","tipo":"Ponte","lat":-5.89036,"lon":-62.40069,"br":"BR-319","km_aprox":60.9},"geometry":{"type":"Point","coordinates":[-62.40069,-5.89036]}},{"type":"Feature","properties":{"codigo":"OAE319AMS058362W623501","tipo":"Ponte","lat":-5.83621,"lon":-62.3501,"br":"BR-319","km_aprox":52.7},"geometry":{"type":"Point","coordinates":[-62.3501,-5.83621]}},{"type":"Feature","properties":{"codigo":"OAE319AMS058311W623453","tipo":"Ponte","lat":-5.83112,"lon":-62.34537,"br":"BR-319","km_aprox":51.9},"geometry":{"type":"Point","coordinates":[-62.34537,-5.83112]}},{"type":"Feature","properties":{"codigo":"OAE319AMS063711W628085","tipo":"Ponte","lat":-6.37118,"lon":-62.80855,"br":"BR-319","km_aprox":131.8},"geometry":{"type":"Point","coordinates":[-62.80855,-6.37118]}},{"type":"Feature","properties":{"codigo":"OAE319AMS063458W627852","tipo":"Ponte","lat":-6.34585,"lon":-62.78526,"br":"BR-319","km_aprox":128.0},"geometry":{"type":"Point","coordinates":[-62.78526,-6.34585]}},{"type":"Feature","properties":{"codigo":"OAE319AMS062971W627551","tipo":"Ponte","lat":-6.29712,"lon":-62.7552,"br":"BR-319","km_aprox":121.6},"geometry":{"type":"Point","coordinates":[-62.7552,-6.29712]}},{"type":"Feature","properties":{"codigo":"OAE319AMS062681W627332","tipo":"Ponte","lat":-6.26814,"lon":-62.73321,"br":"BR-319","km_aprox":117.5},"geometry":{"type":"Point","coordinates":[-62.73321,-6.26814]}},{"type":"Feature","properties":{"codigo":"OAE319AMS062535W627162","tipo":"Ponte","lat":-6.25358,"lon":-62.71621,"br":"BR-319","km_aprox":115.0},"geometry":{"type":"Point","coordinates":[-62.71621,-6.25358]}},{"type":"Feature","properties":{"codigo":"OAE319AMS062200W626786","tipo":"Ponte","lat":-6.22006,"lon":-62.67862,"br":"BR-319","km_aprox":109.4},"geometry":{"type":"Point","coordinates":[-62.67862,-6.22006]}},{"type":"Feature","properties":{"codigo":"OAE319AMS062051W626625","tipo":"Ponte","lat":-6.20517,"lon":-62.66257,"br":"BR-319","km_aprox":106.9},"geometry":{"type":"Point","coordinates":[-62.66257,-6.20517]}},{"type":"Feature","properties":{"codigo":"OAE319AMS061876W626451","tipo":"Ponte","lat":-6.18767,"lon":-62.64519,"br":"BR-319","km_aprox":104.2},"geometry":{"type":"Point","coordinates":[-62.64519,-6.18767]}},{"type":"Feature","properties":{"codigo":"OAE319AMS061688W626293","tipo":"Ponte","lat":-6.16884,"lon":-62.62935,"br":"BR-319","km_aprox":101.4},"geometry":{"type":"Point","coordinates":[-62.62935,-6.16884]}},{"type":"Feature","properties":{"codigo":"OAE319AMS061626W626242","tipo":"Ponte","lat":-6.16268,"lon":-62.62421,"br":"BR-319","km_aprox":100.6},"geometry":{"type":"Point","coordinates":[-62.62421,-6.16268]}},{"type":"Feature","properties":{"codigo":"OAE319AMS061460W626101","tipo":"Ponte","lat":-6.14602,"lon":-62.61019,"br":"BR-319","km_aprox":98.1},"geometry":{"type":"Point","coordinates":[-62.61019,-6.14602]}},{"type":"Feature","properties":{"codigo":"OAE319AMS061266W625939","tipo":"Ponte","lat":-6.12662,"lon":-62.59393,"br":"BR-319","km_aprox":95.3},"geometry":{"type":"Point","coordinates":[-62.59393,-6.12662]}},{"type":"Feature","properties":{"codigo":"OAE319AMS061219W625900","tipo":"Ponte","lat":-6.12197,"lon":-62.59001,"br":"BR-319","km_aprox":94.6},"geometry":{"type":"Point","coordinates":[-62.59001,-6.12197]}},{"type":"Feature","properties":{"codigo":"OAE319AMS061147W625839","tipo":"Ponte","lat":-6.11471,"lon":-62.5839,"br":"BR-319","km_aprox":93.6},"geometry":{"type":"Point","coordinates":[-62.5839,-6.11471]}},{"type":"Feature","properties":{"codigo":"OAE319AMS060925W625660","tipo":"Ponte","lat":-6.09257,"lon":-62.56605,"br":"BR-319","km_aprox":90.4},"geometry":{"type":"Point","coordinates":[-62.56605,-6.09257]}},{"type":"Feature","properties":{"codigo":"OAE319AMS060768W625561","tipo":"Ponte","lat":-6.07681,"lon":-62.55619,"br":"BR-319","km_aprox":88.3},"geometry":{"type":"Point","coordinates":[-62.55619,-6.07681]}},{"type":"Feature","properties":{"codigo":"OAE319AMS064247W628598","tipo":"Ponte","lat":-6.42476,"lon":-62.85988,"br":"BR-319","km_aprox":140.1},"geometry":{"type":"Point","coordinates":[-62.85988,-6.42476]}},{"type":"Feature","properties":{"codigo":"OAE319AMS064026W628425","tipo":"Ponte","lat":-6.40269,"lon":-62.84251,"br":"BR-319","km_aprox":137.0},"geometry":{"type":"Point","coordinates":[-62.84251,-6.40269]}},{"type":"Feature","properties":{"codigo":"OAE319AMS063874W628260","tipo":"Ponte","lat":-6.38748,"lon":-62.82607,"br":"BR-319","km_aprox":134.5},"geometry":{"type":"Point","coordinates":[-62.82607,-6.38748]}},{"type":"Feature","properties":{"codigo":"OAE319AMS066899W629710","tipo":"Ponte","lat":-6.68991,"lon":-62.97101,"br":"BR-319","km_aprox":32.2},"geometry":{"type":"Point","coordinates":[-62.97101,-6.68991]}},{"type":"Feature","properties":{"codigo":"OAE319AMS064302W628640","tipo":"Ponte","lat":-6.43021,"lon":-62.864,"br":"BR-319","km_aprox":0.1},"geometry":{"type":"Point","coordinates":[-62.864,-6.43021]}},{"type":"Feature","properties":{"codigo":"OAE319AMS066177W629563","tipo":"Ponte","lat":-6.61772,"lon":-62.95636,"br":"BR-319","km_aprox":24.0},"geometry":{"type":"Point","coordinates":[-62.95636,-6.61772]}},{"type":"Feature","properties":{"codigo":"OAE319AMS065938W629518","tipo":"Ponte","lat":-6.59385,"lon":-62.95181,"br":"BR-319","km_aprox":21.3},"geometry":{"type":"Point","coordinates":[-62.95181,-6.59385]}},{"type":"Feature","properties":{"codigo":"OAE319AMS065686W629469","tipo":"Ponte","lat":-6.56862,"lon":-62.94699,"br":"BR-319","km_aprox":18.4},"geometry":{"type":"Point","coordinates":[-62.94699,-6.56862]}},{"type":"Feature","properties":{"codigo":"OAE319AMS065502W629434","tipo":"Ponte","lat":-6.55023,"lon":-62.94349,"br":"BR-319","km_aprox":16.3},"geometry":{"type":"Point","coordinates":[-62.94349,-6.55023]}},{"type":"Feature","properties":{"codigo":"OAE319AMS065421W629399","tipo":"Ponte","lat":-6.5421,"lon":-62.93993,"br":"BR-319","km_aprox":15.3},"geometry":{"type":"Point","coordinates":[-62.93993,-6.5421]}},{"type":"Feature","properties":{"codigo":"OAE319AMS065390W629380","tipo":"Ponte","lat":-6.53905,"lon":-62.93803,"br":"BR-319","km_aprox":14.9},"geometry":{"type":"Point","coordinates":[-62.93803,-6.53905]}},{"type":"Feature","properties":{"codigo":"OAE319AMS065169W629230","tipo":"Ponte","lat":-6.51698,"lon":-62.9231,"br":"BR-319","km_aprox":11.9},"geometry":{"type":"Point","coordinates":[-62.9231,-6.51698]}},{"type":"Feature","properties":{"codigo":"OAE319AMS065151W629213","tipo":"Ponte","lat":-6.51517,"lon":-62.92138,"br":"BR-319","km_aprox":11.6},"geometry":{"type":"Point","coordinates":[-62.92138,-6.51517]}},{"type":"Feature","properties":{"codigo":"OAE319AMS064758W628900","tipo":"Ponte","lat":-6.47589,"lon":-62.89005,"br":"BR-319","km_aprox":6.0},"geometry":{"type":"Point","coordinates":[-62.89005,-6.47589]}},{"type":"Feature","properties":{"codigo":"OAE319AMS064718W628884","tipo":"Ponte","lat":-6.47181,"lon":-62.8884,"br":"BR-319","km_aprox":5.5},"geometry":{"type":"Point","coordinates":[-62.8884,-6.47181]}},{"type":"Feature","properties":{"codigo":"OAE319AMS064446W628743","tipo":"Ponte","lat":-6.44462,"lon":-62.87436,"br":"BR-319","km_aprox":2.0},"geometry":{"type":"Point","coordinates":[-62.87436,-6.44462]}},{"type":"Feature","properties":{"codigo":"OAE319AMS064413W628720","tipo":"Ponte","lat":-6.4414,"lon":-62.872,"br":"BR-319","km_aprox":1.6},"geometry":{"type":"Point","coordinates":[-62.872,-6.4414]}},{"type":"Feature","properties":{"codigo":"OAE319AMS064377W628693","tipo":"Ponte","lat":-6.43772,"lon":-62.86933,"br":"BR-319","km_aprox":1.1},"geometry":{"type":"Point","coordinates":[-62.86933,-6.43772]}},{"type":"Feature","properties":{"codigo":"OAE319AMS068303W630405","tipo":"Ponte","lat":-6.83031,"lon":-63.04055,"br":"BR-319","km_aprox":573.8},"geometry":{"type":"Point","coordinates":[-63.04055,-6.83031]}},{"type":"Feature","properties":{"codigo":"OAE319AMS068481W630522","tipo":"Ponte","lat":-6.84818,"lon":-63.05226,"br":"BR-319","km_aprox":576.2},"geometry":{"type":"Point","coordinates":[-63.05226,-6.84818]}},{"type":"Feature","properties":{"codigo":"OAE319AMS069862W630988","tipo":"Ponte de Madeira","lat":-6.98629,"lon":-63.09881,"br":"BR-319","km_aprox":592.6},"geometry":{"type":"Point","coordinates":[-63.09881,-6.98629]}},{"type":"Feature","properties":{"codigo":"OAE319AMS068601W630587","tipo":"Ponte","lat":-6.86012,"lon":-63.0587,"br":"BR-319","km_aprox":577.7},"geometry":{"type":"Point","coordinates":[-63.0587,-6.86012]}},{"type":"Feature","properties":{"codigo":"OAE319AMS069571W630894","tipo":"Ponte","lat":-6.95712,"lon":-63.08947,"br":"BR-319","km_aprox":589.1},"geometry":{"type":"Point","coordinates":[-63.08947,-6.95712]}},{"type":"Feature","properties":{"codigo":"OAE319AMS070184W631026","tipo":"Ponte","lat":-7.01842,"lon":-63.1026,"br":"BR-319","km_aprox":596.2},"geometry":{"type":"Point","coordinates":[-63.1026,-7.01842]}},{"type":"Feature","properties":{"codigo":"OAE319AMS070058W631011","tipo":"Ponte","lat":-7.0059,"lon":-63.10119,"br":"BR-319","km_aprox":594.8},"geometry":{"type":"Point","coordinates":[-63.10119,-7.0059]}},{"type":"Feature","properties":{"codigo":"OAE319AMS069948W630999","tipo":"Ponte","lat":-6.99485,"lon":-63.09997,"br":"BR-319","km_aprox":593.5},"geometry":{"type":"Point","coordinates":[-63.09997,-6.99485]}},{"type":"Feature","properties":{"codigo":"OAE319AMS070850W631100","tipo":"Ponte","lat":-7.08508,"lon":-63.11007,"br":"BR-319","km_aprox":603.7},"geometry":{"type":"Point","coordinates":[-63.11007,-7.08508]}},{"type":"Feature","properties":{"codigo":"OAE319AMS071352W631159","tipo":"Ponte","lat":-7.13523,"lon":-63.11596,"br":"BR-319","km_aprox":609.4},"geometry":{"type":"Point","coordinates":[-63.11596,-7.13523]}},{"type":"Feature","properties":{"codigo":"OAE230AMS075831W632371","tipo":"Ponte","lat":-7.58311,"lon":-63.23716,"br":"BR-230","km_aprox":1481.7},"geometry":{"type":"Point","coordinates":[-63.23716,-7.58311]}},{"type":"Feature","properties":{"codigo":"OAE319AMS077685W631487","tipo":"Ponte","lat":-7.76855,"lon":-63.14878,"br":"BR-319","km_aprox":711.0},"geometry":{"type":"Point","coordinates":[-63.14878,-7.76855]}},{"type":"Feature","properties":{"codigo":"OAE319AMS079318W633351","tipo":"Ponte","lat":-7.93181,"lon":-63.33513,"br":"BR-319","km_aprox":738.8},"geometry":{"type":"Point","coordinates":[-63.33513,-7.93181]}},{"type":"Feature","properties":{"codigo":"OAE230PAS064211W582401","tipo":"Ponte","lat":-6.42118,"lon":-58.24012,"br":"BR-230","km_aprox":818.1},"geometry":{"type":"Point","coordinates":[-58.24012,-6.42118]}},{"type":"Feature","properties":{"codigo":"OAE174AMS029735W600156","tipo":"Ponte","lat":-2.97352,"lon":-60.01564,"br":"BR-174","km_aprox":933.9},"geometry":{"type":"Point","coordinates":[-60.01564,-2.97352]}},{"type":"Feature","properties":{"codigo":"OAE174AMS029734W600157","tipo":"Ponte","lat":-2.97349,"lon":-60.01579,"br":"BR-174","km_aprox":933.9},"geometry":{"type":"Point","coordinates":[-60.01579,-2.97349]}}]}