{"type":"FeatureCollection","features":[{"type":"Feature","properties":{"br":"BR-174","vmda":695,"vmda_cresc":352,"vmda_decresc":344,"extensao":0.23,"faixa":"0-1000"},"geometry":{"type":"LineString","coordinates":[[-61.29215,-4.71105],[-61.29305,-4.71292]]}},{"type":"Feature","properties":{"br":"BR-174","vmda":695,"vmda_cresc":352,"vmda_decresc":344,"extensao":23.83,"faixa":"0-1000"},"geometry":{"type":"LineString","coordinates":[[-60.80685,-4.18084],[-60.8163,-4.20314],[-60.82577,-4.23215],[-60.84976,-4.28154],[-60.92831,-4.35191]]}},{"type":"Feature","properties":{"br":"BR-174","vmda":2134,"vmda_cresc":1143,"vmda_decresc":991,"extensao":12.97,"faixa":"1001-2500"},"geometry":{"type":"LineString","coordinates":[[-59.93992,-3.1345],[-59.92539,-3.13913],[-59.90404,-3.12887],[-59.89528,-3.14006],[-59.88784,-3.18269],[-59.86871,-3.19024]]}},{"type":"Feature","properties":{"br":"BR-174","vmda":1751,"vmda_cresc":950,"vmda_decresc":802,"extensao":14.91,"faixa":"1001-2500"},"geometry":{"type":"LineString","coordinates":[[-59.86364,-3.28382],[-59.8655,-3.28617],[-59.87684,-3.2951],[-59.87865,-3.29847],[-59.87801,-3.32831],[-59.87958,-3.37693],[-59.88923,-3.3892],[-59.9021,-3.40338]]}},{"type":"Feature","properties":{"br":"BR-174","vmda":1751,"vmda_cresc":950,"vmda_decresc":802,"extensao":7.22,"faixa":"1001-2500"},"geometry":{"type":"LineString","coordinates":[[-59.86903,-3.21462],[-59.86567,-3.22735],[-59.86745,-3.23519],[-59.86727,-3.23831],[-59.85614,-3.25503],[-59.85305,-3.26967],[-59.85332,-3.27276],[-59.8545,-3.27507]]}},{"type":"Feature","properties":{"br":"BR-174","vmda":695,"vmda_cresc":352,"vmda_decresc":344,"extensao":63.45,"faixa":"0-1000"},"geometry":{"type":"LineString","coordinates":[[-60.36434,-3.82679],[-60.3716,-3.83264],[-60.3762,-3.84246],[-60.39611,-3.86516],[-60.42668,-3.8909],[-60.42958,-3.89223],[-60.43651,-3.89223],[-60.43956,-3.89352],[-60.4497,-3.90284],[-60.45753,-3.91473],[-60.80083,-4.1705],[-60.8032,-4.17335],[-60.80685,-4.18084]]}},{"type":"Feature","properties":{"br":"BR-174","vmda":1751,"vmda_cresc":950,"vmda_decresc":802,"extensao":2.73,"faixa":"1001-2500"},"geometry":{"type":"LineString","coordinates":[[-59.86871,-3.19024],[-59.8706,-3.20793],[-59.86903,-3.21462]]}},{"type":"Feature","properties":{"br":"BR-174","vmda":2397,"vmda_cresc":1194,"vmda_decresc":1203,"extensao":1.43,"faixa":"1001-2500"},"geometry":{"type":"LineString","coordinates":[[-60.23826,-1.53487],[-60.24406,-1.52334]]}},{"type":"Feature","properties":{"br":"BR-319","vmda":1073,"vmda_cresc":623,"vmda_decresc":450,"extensao":3.83,"faixa":"1001-2500"},"geometry":{"type":"LineString","coordinates":[[-63.36189,-7.95375],[-63.33501,-7.93177]]}},{"type":"Feature","properties":{"br":"BR-174","vmda":2260,"vmda_cresc":1180,"vmda_decresc":1080,"extensao":4.11,"faixa":"1001-2500"},"geometry":{"type":"LineString","coordinates":[[-59.99136,-2.11414],[-59.99515,-2.10189],[-60.0075,-2.08103]]}},{"type":"Feature","properties":{"br":"BR-174","vmda":2397,"vmda_cresc":1194,"vmda_decresc":1203,"extensao":2.84,"faixa":"1001-2500"},"geometry":{"type":"LineString","coordinates":[[-60.11523,-1.83847],[-60.12063,-1.83499],[-60.12863,-1.83152],[-60.13667,-1.8249]]}},{"type":"Feature","properties":{"br":"BR-174","vmda":2260,"vmda_cresc":1180,"vmda_decresc":1080,"extensao":3.25,"faixa":"1001-2500"},"geometry":{"type":"LineString","coordinates":[[-60.0075,-2.08103],[-60.02243,-2.05581]]}},{"type":"Feature","properties":{"br":"BR-174","vmda":2397,"vmda_cresc":1194,"vmda_decresc":1203,"extensao":5.91,"faixa":"1001-2500"},"geometry":{"type":"LineString","coordinates":[[-60.02602,-2.04789],[-60.02663,-1.99451]]}},{"type":"Feature","properties":{"br":"BR-174","vmda":2397,"vmda_cresc":1194,"vmda_decresc":1203,"extensao":5.02,"faixa":"1001-2500"},"geometry":{"type":"LineString","coordinates":[[-60.48146,-1.02538],[-60.46834,-1.06879]]}},{"type":"Feature","properties":{"br":"BR-174","vmda":2397,"vmda_cresc":1194,"vmda_decresc":1203,"extensao":3.9,"faixa":"1001-2500"},"geometry":{"type":"LineString","coordinates":[[-60.49124,-0.99151],[-60.48146,-1.02538]]}},{"type":"Feature","properties":{"br":"BR-174","vmda":1061,"vmda_cresc":580,"vmda_decresc":481,"extensao":51.14,"faixa":"1001-2500"},"geometry":{"type":"LineString","coordinates":[[-60.00411,-3.44942],[-60.00616,-3.45262],[-60.00799,-3.45377],[-60.04119,-3.45826],[-60.10733,-3.48412],[-60.21216,-3.59493],[-60.24948,-3.62858],[-60.25655,-3.63942],[-60.27447,-3.69216],[-60.27759,-3.72325],[-60.27876,-3.72818],[-60.30086,-3.7651]]}},{"type":"Feature","properties":{"br":"BR-230","vmda":794,"vmda_cresc":353,"vmda_decresc":441,"extensao":11.27,"faixa":"0-1000"},"geometry":{"type":"LineString","coordinates":[[-63.26933,-7.56391],[-63.22307,-7.59111],[-63.175,-7.59381]]}},{"type":"Feature","properties":{"br":"BR-174","vmda":2260,"vmda_cresc":1180,"vmda_decresc":1080,"extensao":13.97,"faixa":"1001-2500"},"geometry":{"type":"LineString","coordinates":[[-60.04842,-2.70991],[-60.04944,-2.69753],[-60.04558,-2.67041],[-60.04015,-2.64277],[-60.03911,-2.60953],[-60.03218,-2.58556]]}},{"type":"Feature","properties":{"br":"BR-174","vmda":1061,"vmda_cresc":580,"vmda_decresc":481,"extensao":12.89,"faixa":"1001-2500"},"geometry":{"type":"LineString","coordinates":[[-59.9021,-3.40338],[-59.91471,-3.41671],[-59.96559,-3.42922],[-59.98099,-3.436],[-59.9971,-3.44017],[-59.99951,-3.442],[-60.00411,-3.44942]]}},{"type":"Feature","properties":{"br":"BR-230","vmda":854,"vmda_cresc":379,"vmda_decresc":475,"extensao":14.42,"faixa":"0-1000"},"geometry":{"type":"LineString","coordinates":[[-64.73721,-7.37902],[-64.73996,-7.34533],[-64.77054,-7.28819],[-64.79371,-7.2664]]}},{"type":"Feature","properties":{"br":"BR-174","vmda":2183,"vmda_cresc":1156,"vmda_decresc":1026,"extensao":6.14,"faixa":"1001-2500"},"geometry":{"type":"LineString","coordinates":[[-59.93379,-3.02496],[-59.94029,-3.03703],[-59.94526,-3.05134],[-59.95591,-3.0757]]}},{"type":"Feature","properties":{"br":"BR-174","vmda":2183,"vmda_cresc":1156,"vmda_decresc":1026,"extensao":2.06,"faixa":"1001-2500"},"geometry":{"type":"LineString","coordinates":[[-59.94002,-3.00803],[-59.93806,-3.01951],[-59.93379,-3.02496]]}},{"type":"Feature","properties":{"br":"BR-319","vmda":1073,"vmda_cresc":623,"vmda_decresc":450,"extensao":27.59,"faixa":"1001-2500"},"geometry":{"type":"LineString","coordinates":[[-63.33501,-7.93177],[-63.16204,-7.7931],[-63.14866,-7.76838]]}},{"type":"Feature","properties":{"br":"BR-254","vmda":701,"vmda_cresc":null,"vmda_decresc":null,"extensao":93.95,"faixa":"0-1000"},"geometry":{"type":"LineString","coordinates":[[-59.9021,-3.40338],[-59.87399,-3.44807],[-59.82866,-3.51556],[-59.81296,-3.51794],[-59.80861,-3.51928],[-59.74871,-3.56933],[-59.74395,-3.57195],[-59.71564,-3.57623],[-59.67994,-3.58337],[-59.53194,-3.60931],[-59.48792,-3.59456],[-59.45794,-3.58147],[-59.45033,-3.58052],[-59.4232,-3.57266],[-59.40631,-3.57243],[-59.39465,-3.56719],[-59.38679,-3.56553],[-59.36181,-3.55506],[-59.35896,-3.54459],[-59.3473,-3.54316],[-59.34396,-3.54744],[-59.31946,-3.55934],[-59.29637,-3.55625],[-59.2614,-3.52626],[-59.24736,-3.52626],[-59.23665,-3.53459],[-59.21071,-3.53364],[-59.19667,-3.54625],[-59.18961,-3.55401],[-59.19425,-3.55761]]}},{"type":"Feature","properties":{"br":"BR-254","vmda":701,"vmda_cresc":null,"vmda_decresc":null,"extensao":42.18,"faixa":"0-1000"},"geometry":{"type":"LineString","coordinates":[[-59.19425,-3.55761],[-59.13498,-3.6062],[-59.13617,-3.61393],[-59.1326,-3.61929],[-59.13379,-3.63118],[-59.12071,-3.64784],[-59.11357,-3.65319],[-59.12194,-3.66952],[-59.12502,-3.71467],[-59.08298,-3.89431]]}},{"type":"Feature","properties":{"br":"BR-174","vmda":2397,"vmda_cresc":1194,"vmda_decresc":1203,"extensao":13.73,"faixa":"1001-2500"},"geometry":{"type":"LineString","coordinates":[[-60.51458,-0.87245],[-60.52011,-0.89806],[-60.49124,-0.99151]]}},{"type":"Feature","properties":{"br":"BR-174","vmda":1061,"vmda_cresc":580,"vmda_decresc":481,"extensao":10.44,"faixa":"1001-2500"},"geometry":{"type":"LineString","coordinates":[[-60.30086,-3.7651],[-60.30877,-3.77929],[-60.31067,-3.79244],[-60.31219,-3.79539],[-60.33983,-3.80953],[-60.35669,-3.82249],[-60.36434,-3.82679]]}},{"type":"Feature","properties":{"br":"BR-174","vmda":2260,"vmda_cresc":1180,"vmda_decresc":1080,"extensao":37.43,"faixa":"1001-2500"},"geometry":{"type":"LineString","coordinates":[[-60.03218,-2.58556],[-60.0272,-2.57705],[-60.02627,-2.56837],[-60.02767,-2.56374],[-60.03521,-2.5495],[-60.03701,-2.54024],[-60.03644,-2.53052],[-60.03757,-2.51905],[-60.03501,-2.4967],[-60.02485,-2.44911],[-60.04083,-2.37636],[-60.04198,-2.36297],[-60.04754,-2.32936],[-60.03952,-2.26313],[-60.03597,-2.25591]]}},{"type":"Feature","properties":{"br":"BR-174","vmda":2397,"vmda_cresc":1194,"vmda_decresc":1203,"extensao":22.69,"faixa":"1001-2500"},"geometry":{"type":"LineString","coordinates":[[-60.46834,-1.06879],[-60.46213,-1.08841],[-60.45879,-1.11042],[-60.44523,-1.13634],[-60.43355,-1.20121],[-60.42256,-1.23012],[-60.4104,-1.24566],[-60.4063,-1.2614]]}},{"type":"Feature","properties":{"br":"BR-174","vmda":2397,"vmda_cresc":1194,"vmda_decresc":1203,"extensao":10.58,"faixa":"1001-2500"},"geometry":{"type":"LineString","coordinates":[[-60.02663,-1.99451],[-60.03142,-1.96966],[-60.06164,-1.90623]]}},{"type":"Feature","properties":{"br":"BR-174","vmda":2397,"vmda_cresc":1194,"vmda_decresc":1203,"extensao":9.96,"faixa":"1001-2500"},"geometry":{"type":"LineString","coordinates":[[-60.06164,-1.90623],[-60.08286,-1.86278],[-60.08668,-1.859],[-60.09745,-1.85544],[-60.11523,-1.83847]]}},{"type":"Feature","properties":{"br":"BR-174","vmda":2397,"vmda_cresc":1194,"vmda_decresc":1203,"extensao":35.1,"faixa":"1001-2500"},"geometry":{"type":"LineString","coordinates":[[-60.13667,-1.8249],[-60.14296,-1.81968],[-60.14472,-1.81717],[-60.1466,-1.80943],[-60.14613,-1.8027],[-60.14185,-1.78805],[-60.14185,-1.78514],[-60.14396,-1.76524],[-60.14832,-1.7547],[-60.14869,-1.74919],[-60.15421,-1.73508],[-60.15279,-1.71701],[-60.15618,-1.6944],[-60.18057,-1.65297],[-60.23826,-1.53487]]}},{"type":"Feature","properties":{"br":"BR-174","vmda":1751,"vmda_cresc":950,"vmda_decresc":802,"extensao":1.43,"faixa":"1001-2500"},"geometry":{"type":"LineString","coordinates":[[-59.8545,-3.27507],[-59.85694,-3.27833],[-59.86147,-3.28106],[-59.86364,-3.28382]]}},{"type":"Feature","properties":{"br":"BR-174","vmda":2183,"vmda_cresc":1156,"vmda_decresc":1026,"extensao":6.72,"faixa":"1001-2500"},"geometry":{"type":"LineString","coordinates":[[-59.95591,-3.0757],[-59.95586,-3.07977],[-59.94922,-3.08797],[-59.94497,-3.11204],[-59.94613,-3.1137],[-59.95172,-3.11538],[-59.95281,-3.12106],[-59.95644,-3.12816]]}},{"type":"Feature","properties":{"br":"BR-174","vmda":2260,"vmda_cresc":1180,"vmda_decresc":1080,"extensao":1,"faixa":"1001-2500"},"geometry":{"type":"LineString","coordinates":[[-60.02243,-2.05581],[-60.02524,-2.05098],[-60.02602,-2.04789]]}},{"type":"Feature","properties":{"br":"BR-174","vmda":2397,"vmda_cresc":1194,"vmda_decresc":1203,"extensao":1.69,"faixa":"1001-2500"},"geometry":{"type":"LineString","coordinates":[[-60.52013,-0.85928],[-60.51415,-0.86736],[-60.51458,-0.87245]]}},{"type":"Feature","properties":{"br":"BR-230","vmda":854,"vmda_cresc":379,"vmda_decresc":475,"extensao":0.17,"faixa":"0-1000"},"geometry":{"type":"LineString","coordinates":[[-64.24182,-7.46476],[-64.24322,-7.46535]]}},{"type":"Feature","properties":{"br":"BR-174","vmda":2134,"vmda_cresc":1143,"vmda_decresc":991,"extensao":1.05,"faixa":"1001-2500"},"geometry":{"type":"LineString","coordinates":[[-59.95644,-3.12816],[-59.95124,-3.12772],[-59.94747,-3.12961]]}},{"type":"Feature","properties":{"br":"BR-174","vmda":2134,"vmda_cresc":1143,"vmda_decresc":991,"extensao":1,"faixa":"1001-2500"},"geometry":{"type":"LineString","coordinates":[[-59.94747,-3.12961],[-59.93992,-3.1345]]}},{"type":"Feature","properties":{"br":"BR-174","vmda":2260,"vmda_cresc":1180,"vmda_decresc":1080,"extensao":30.61,"faixa":"1001-2500"},"geometry":{"type":"LineString","coordinates":[[-60.01562,-2.97188],[-60.02116,-2.9657],[-60.03062,-2.96111],[-60.03278,-2.95859],[-60.03511,-2.92807],[-60.03846,-2.92127],[-60.03891,-2.91185],[-60.0355,-2.90176],[-60.03507,-2.89292],[-60.03476,-2.86554],[-60.03752,-2.85665],[-60.03246,-2.84462],[-60.03708,-2.80627],[-60.03646,-2.77034],[-60.03726,-2.7594],[-60.04234,-2.75148],[-60.04842,-2.70991]]}},{"type":"Feature","properties":{"br":"BR-317","vmda":798,"vmda_cresc":399,"vmda_decresc":399,"extensao":35.31,"faixa":"0-1000"},"geometry":{"type":"LineString","coordinates":[[-67.32814,-8.7808],[-67.31917,-8.78697],[-67.31503,-8.7876],[-67.30944,-8.79288],[-67.3089,-8.81601],[-67.3039,-8.82533],[-67.30511,-8.83367],[-67.2946,-8.85078],[-67.29399,-8.85821],[-67.28856,-8.86529],[-67.28432,-8.87356],[-67.27714,-8.89222],[-67.26847,-8.89678],[-67.26359,-8.89799],[-67.25406,-8.90782],[-67.25259,-8.91212],[-67.25212,-8.92075],[-67.24817,-8.92734],[-67.24761,-8.92999],[-67.24772,-8.9414],[-67.2507,-8.94576],[-67.25031,-8.95018],[-67.24859,-8.95232],[-67.2399,-8.95727],[-67.22627,-8.9628],[-67.2188,-8.97019],[-67.21864,-8.98263],[-67.21544,-8.98822],[-67.21069,-8.9929],[-67.21042,-9.00618],[-67.20759,-9.01581],[-67.21225,-9.02443],[-67.21157,-9.02962],[-67.21256,-9.0329],[-67.21548,-9.03786],[-67.21907,-9.03893]]}},{"type":"Feature","properties":{"br":"BR-174","vmda":2397,"vmda_cresc":1194,"vmda_decresc":1203,"extensao":28.35,"faixa":"1001-2500"},"geometry":{"type":"LineString","coordinates":[[-60.27746,-1.47209],[-60.28913,-1.45975],[-60.29547,-1.44709],[-60.34328,-1.37937],[-60.34824,-1.37576],[-60.35226,-1.37036],[-60.3574,-1.36797],[-60.35927,-1.36629],[-60.36014,-1.36407],[-60.36,-1.35733],[-60.36088,-1.35467],[-60.37408,-1.34096],[-60.39374,-1.30738],[-60.40496,-1.2939],[-60.40828,-1.2777],[-60.4063,-1.2614]]}},{"type":"Feature","properties":{"br":"BR-319","vmda":695,"vmda_cresc":344,"vmda_decresc":352,"extensao":56.13,"faixa":"0-1000"},"geometry":{"type":"LineString","coordinates":[[-63.11003,-7.08463],[-63.11948,-7.16181],[-63.21157,-7.4064],[-63.26116,-7.53983],[-63.26953,-7.56274],[-63.26933,-7.56391]]}},{"type":"Feature","properties":{"br":"BR-174","vmda":2183,"vmda_cresc":1156,"vmda_decresc":1026,"extensao":10.86,"faixa":"1001-2500"},"geometry":{"type":"LineString","coordinates":[[-60.01713,-2.98044],[-60.00811,-2.98571],[-59.98973,-2.98637],[-59.98798,-2.98748],[-59.98518,-2.99155],[-59.98133,-2.99199],[-59.98032,-2.99294],[-59.98002,-2.99614],[-59.98157,-2.99865],[-59.98156,-3.00377],[-59.97943,-3.00491],[-59.97561,-3.00531],[-59.96992,-3.01092],[-59.96699,-3.01224],[-59.96425,-3.01282],[-59.96117,-3.01105],[-59.94002,-3.00803]]}},{"type":"Feature","properties":{"br":"BR-174","vmda":2397,"vmda_cresc":1194,"vmda_decresc":1203,"extensao":6.79,"faixa":"1001-2500"},"geometry":{"type":"LineString","coordinates":[[-60.24406,-1.52334],[-60.25087,-1.50968],[-60.27746,-1.47209]]}},{"type":"Feature","properties":{"br":"BR-174","vmda":2260,"vmda_cresc":1180,"vmda_decresc":1080,"extensao":16.54,"faixa":"1001-2500"},"geometry":{"type":"LineString","coordinates":[[-60.03597,-2.25591],[-60.02826,-2.24235],[-59.99688,-2.13312],[-59.99502,-2.12228],[-59.99152,-2.11652],[-59.99136,-2.11414]]}},{"type":"Feature","properties":{"br":"BR-174","vmda":2183,"vmda_cresc":1156,"vmda_decresc":1026,"extensao":0.97,"faixa":"1001-2500"},"geometry":{"type":"LineString","coordinates":[[-60.01562,-2.97188],[-60.01594,-2.97729],[-60.01713,-2.98044]]}},{"type":"Feature","properties":{"br":"BR-319","vmda":1073,"vmda_cresc":623,"vmda_decresc":450,"extensao":27.02,"faixa":"1001-2500"},"geometry":{"type":"LineString","coordinates":[[-63.14866,-7.76838],[-63.13917,-7.75099],[-63.10005,-7.72182],[-63.0822,-7.69017],[-63.07751,-7.55088]]}},{"type":"Feature","properties":{"br":"BR-230","vmda":794,"vmda_cresc":353,"vmda_decresc":441,"extensao":7.41,"faixa":"0-1000"},"geometry":{"type":"LineString","coordinates":[[-63.175,-7.59381],[-63.17254,-7.59373],[-63.11958,-7.57653],[-63.11416,-7.57539],[-63.1114,-7.57361]]}},{"type":"Feature","properties":{"br":"BR-319","vmda":695,"vmda_cresc":344,"vmda_decresc":352,"extensao":10.99,"faixa":"0-1000"},"geometry":{"type":"LineString","coordinates":[[-63.09875,-6.98602],[-63.11003,-7.08463]]}},{"type":"Feature","properties":{"br":"BR-230","vmda":794,"vmda_cresc":353,"vmda_decresc":441,"extensao":4.57,"faixa":"0-1000"},"geometry":{"type":"LineString","coordinates":[[-63.1114,-7.57361],[-63.07865,-7.55073],[-63.07751,-7.55088]]}},{"type":"Feature","properties":{"br":"BR-317","vmda":798,"vmda_cresc":399,"vmda_decresc":399,"extensao":19.27,"faixa":"0-1000"},"geometry":{"type":"LineString","coordinates":[[-67.27397,-9.36027],[-67.27651,-9.36177],[-67.28496,-9.36159],[-67.28673,-9.36342],[-67.28692,-9.36785],[-67.28198,-9.37281],[-67.2812,-9.38121],[-67.2756,-9.39194],[-67.28308,-9.40184],[-67.28368,-9.42537],[-67.29441,-9.44043],[-67.29513,-9.44275],[-67.29512,-9.45048],[-67.28673,-9.469],[-67.28573,-9.49217],[-67.2816,-9.50851],[-67.28244,-9.51117]]}},{"type":"Feature","properties":{"br":"BR-317","vmda":798,"vmda_cresc":399,"vmda_decresc":399,"extensao":9.89,"faixa":"0-1000"},"geometry":{"type":"LineString","coordinates":[[-67.29361,-9.15618],[-67.2951,-9.16427],[-67.29258,-9.17134],[-67.2896,-9.17844],[-67.2821,-9.18504],[-67.28143,-9.18677],[-67.28149,-9.19693],[-67.2912,-9.21449],[-67.2922,-9.22039],[-67.29168,-9.22238],[-67.28579,-9.22969],[-67.28543,-9.23608]]}},{"type":"Feature","properties":{"br":"BR-317","vmda":798,"vmda_cresc":399,"vmda_decresc":399,"extensao":1.64,"faixa":"0-1000"},"geometry":{"type":"LineString","coordinates":[[-67.3389,-8.77068],[-67.33583,-8.77426],[-67.32814,-8.7808]]}}]}