{"type": "FeatureCollection", "fonte": "DNIT, instalações portuárias públicas de pequeno porte", "features": [{"type": "Feature", "properties": {"nome": "Alvarães", "municipio": "Alvarães", "tipo": "IP4", "status": "Concluída", "contrato": "01 00354/2021"}, "geometry": {"type": "MultiPoint", "coordinates": [[-64.80367, -3.21086]]}}, {"type": "Feature", "properties": {"nome": "Anori", "municipio": "Anori", "tipo": "IP4", "status": "Em construção", "contrato": "01 00916/2020"}, "geometry": {"type": "MultiPoint", "coordinates": [[-61.64414, -3.75878]]}}, {"type": "Feature", "properties": {"nome": "Autazes", "municipio": "Autazes", "tipo": "IP4", "status": "Concluída", "contrato": "01 00032/2021"}, "geometry": {"type": "MultiPoint", "coordinates": [[-59.13462, -3.57731]]}}, {"type": "Feature", "properties": {"nome": "Barcelos", "municipio": "Barcelos", "tipo": "IP4", "status": "Projeto", "contrato": "01 00032/2021"}, "geometry": {"type": "MultiPoint", "coordinates": [[-62.92994, -0.96686]]}}, {"type": "Feature", "properties": {"nome": "Barreirinha", "municipio": "Barreirinha", "tipo": "IP4", "status": "Concluída", "contrato": "01 00915/2020"}, "geometry": {"type": "MultiPoint", "coordinates": [[-57.07261, -2.79303]]}}, {"type": "Feature", "properties": {"nome": "Benjamin Constant", "municipio": "Benjamin Constant", "tipo": "IP4", "status": "Concluída", "contrato": "01 00352/2021"}, "geometry": {"type": "MultiPoint", "coordinates": [[-70.02768, -4.37297]]}}, {"type": "Feature", "properties": {"nome": "Beruri", "municipio": "Beruri", "tipo": "IP4", "status": "Concluída", "contrato": "01 00916/2020"}, "geometry": {"type": "MultiPoint", "coordinates": [[-61.37568, -3.89761]]}}, {"type": "Feature", "properties": {"nome": "Boa Vista do Ramos", "municipio": "Boa Vista do Ramos", "tipo": "IP4", "status": "Concluída", "contrato": "01 00915/2020"}, "geometry": {"type": "MultiPoint", "coordinates": [[-57.5898, -2.96824]]}}, {"type": "Feature", "properties": {"nome": "Borba", "municipio": "Borba", "tipo": "IP4", "status": "Concluída", "contrato": "01 00353/2021"}, "geometry": {"type": "MultiPoint", "coordinates": [[-59.59282, -4.38454]]}}, {"type": "Feature", "properties": {"nome": "Canutama", "municipio": "Canutama", "tipo": "IP4", "status": "Concluída", "contrato": "01 00916/2020"}, "geometry": {"type": "MultiPoint", "coordinates": [[-64.38708, -6.54008]]}}, {"type": "Feature", "properties": {"nome": "Carauari", "municipio": "Carauari", "tipo": "IP4", "status": "Concluída", "contrato": "01 00354/2021"}, "geometry": {"type": "MultiPoint", "coordinates": [[-66.85058, -4.83675]]}}, {"type": "Feature", "properties": {"nome": "Careiro da Várzea", "municipio": "Careiro da Várzea", "tipo": "IP4", "status": "Concluída", "contrato": "01 00032/2021"}, "geometry": {"type": "MultiPoint", "coordinates": [[-59.86814, -3.18855]]}}, {"type": "Feature", "properties": {"nome": "Coari", "municipio": "Coari", "tipo": "IP4", "status": "Concluída", "contrato": "01 00352/2021"}, "geometry": {"type": "MultiPoint", "coordinates": [[-63.14252, -4.08239]]}}, {"type": "Feature", "properties": {"nome": "Codajás", "municipio": "Codajás", "tipo": "IP4", "status": "Concluída", "contrato": "01 00916/2020"}, "geometry": {"type": "MultiPoint", "coordinates": [[-62.06368, -3.84466]]}}, {"type": "Feature", "properties": {"nome": "Eirunepé", "municipio": "Eirunepé", "tipo": "IP4", "status": "Concluída", "contrato": "01 00354/2021"}, "geometry": {"type": "MultiPoint", "coordinates": [[-69.86692, -6.66821]]}}, {"type": "Feature", "properties": {"nome": "Envira", "municipio": "Envira", "tipo": "IP4", "status": "Em construção", "contrato": "01 00354/2021"}, "geometry": {"type": "MultiPoint", "coordinates": [[-70.0281, -7.43372]]}}, {"type": "Feature", "properties": {"nome": "Fonte Boa", "municipio": "Fonte Boa", "tipo": "IP4", "status": "Concluída", "contrato": "01 00352/2021"}, "geometry": {"type": "MultiPoint", "coordinates": [[-66.06869, -2.49647]]}}, {"type": "Feature", "properties": {"nome": "Guajará", "municipio": "Guajará", "tipo": "IP4", "status": "Concluída", "contrato": "01 00354/2021"}, "geometry": {"type": "MultiPoint", "coordinates": [[-72.57858, -7.54744]]}}, {"type": "Feature", "properties": {"nome": "Humaitá", "municipio": "Humaitá", "tipo": "IP4", "status": "Concluída", "contrato": "01 00353/2021"}, "geometry": {"type": "MultiPoint", "coordinates": [[-63.01944, -7.50917]]}}, {"type": "Feature", "properties": {"nome": "Ipixuna", "municipio": "Ipixuna", "tipo": "IP4", "status": "Concluída", "contrato": "01 00354/2021"}, "geometry": {"type": "MultiPoint", "coordinates": [[-71.68925, -7.05614]]}}, {"type": "Feature", "properties": {"nome": "Iranduba (Solimões)", "municipio": "Iranduba", "tipo": "IP4", "status": "Concluída", "contrato": "01 00916/2020"}, "geometry": {"type": "MultiPoint", "coordinates": [[-60.18961, -3.29036]]}}, {"type": "Feature", "properties": {"nome": "Itacoatiara (antigo)", "municipio": "Itacoatiara", "tipo": "IP4", "status": "Concluída", "contrato": "01 00032/2021"}, "geometry": {"type": "MultiPoint", "coordinates": [[-58.44897, -3.14758]]}}, {"type": "Feature", "properties": {"nome": "Itacoatiara (novo)", "municipio": "Itacoatiara.", "tipo": "IP4", "status": "Concluída", "contrato": "01 00032/2021"}, "geometry": {"type": "MultiPoint", "coordinates": [[-58.42939, -3.15444]]}}, {"type": "Feature", "properties": {"nome": "Itamarati", "municipio": "Itamarati", "tipo": "IP4", "status": "Concluída", "contrato": "01 00354/2021"}, "geometry": {"type": "MultiPoint", "coordinates": [[-68.24586, -6.44106]]}}, {"type": "Feature", "properties": {"nome": "Itapiranga", "municipio": "Itapiranga", "tipo": "IP4", "status": "Concluída", "contrato": "01 00915/2020"}, "geometry": {"type": "MultiPoint", "coordinates": [[-58.02264, -2.75068]]}}, {"type": "Feature", "properties": {"nome": "Japurá", "municipio": "Japurá", "tipo": "IP4", "status": "Concluída", "contrato": "01 00352/2021"}, "geometry": {"type": "MultiPoint", "coordinates": [[-66.99728, -1.87736]]}}, {"type": "Feature", "properties": {"nome": "Jutaí", "municipio": "Jutaí", "tipo": "IP4", "status": "Obra paralisada", "contrato": "01 00352/2021"}, "geometry": {"type": "MultiPoint", "coordinates": [[-66.77255, -2.74344]]}}, {"type": "Feature", "properties": {"nome": "Lábrea", "municipio": "Lábrea", "tipo": "IP4", "status": "Projeto", "contrato": "01 00916/2020"}, "geometry": {"type": "MultiPoint", "coordinates": [[-64.79963, -7.2579]]}}, {"type": "Feature", "properties": {"nome": "Manacapuru", "municipio": "Manacapuru", "tipo": "IP4", "status": "Concluída", "contrato": "01 00916/2020"}, "geometry": {"type": "MultiPoint", "coordinates": [[-60.63822, -3.29475]]}}, {"type": "Feature", "properties": {"nome": "Manaquiri", "municipio": "Manaquiri", "tipo": "IP4", "status": "Concluída", "contrato": "01 00916/2020"}, "geometry": {"type": "MultiPoint", "coordinates": [[-60.45923, -3.42702]]}}, {"type": "Feature", "properties": {"nome": "Manicoré", "municipio": "Manicoré", "tipo": "IP4", "status": "Concluída", "contrato": "01 00353/2021"}, "geometry": {"type": "MultiPoint", "coordinates": [[-61.30167, -5.81333]]}}, {"type": "Feature", "properties": {"nome": "Maués", "municipio": "Maués", "tipo": "IP4", "status": "Concluída", "contrato": "01 00915/2020"}, "geometry": {"type": "MultiPoint", "coordinates": [[-57.72499, -3.38203]]}}, {"type": "Feature", "properties": {"nome": "Nhamundá", "municipio": "Nhamundá", "tipo": "IP4", "status": "Concluída", "contrato": "01 00915/2020"}, "geometry": {"type": "MultiPoint", "coordinates": [[-56.71222, -2.18572]]}}, {"type": "Feature", "properties": {"nome": "Nova Olinda do Norte", "municipio": "Nova Olinda do Norte", "tipo": "IP4", "status": "Concluída", "contrato": "01 00353/2021"}, "geometry": {"type": "MultiPoint", "coordinates": [[-59.09136, -3.88633]]}}, {"type": "Feature", "properties": {"nome": "Novo Airão", "municipio": "Novo Airão", "tipo": "IP4", "status": "Concluída", "contrato": "01 00032/2021"}, "geometry": {"type": "MultiPoint", "coordinates": [[-60.94589, -2.62078]]}}, {"type": "Feature", "properties": {"nome": "Novo Aripuanã", "municipio": "Novo Aripuanã", "tipo": "IP4", "status": "Concluída", "contrato": "15 00549/2021"}, "geometry": {"type": "MultiPoint", "coordinates": [[-60.37439, -5.11573]]}}, {"type": "Feature", "properties": {"nome": "Parintins", "municipio": "Parintins", "tipo": "IP4", "status": "Concluída", "contrato": "01 00915/2020"}, "geometry": {"type": "MultiPoint", "coordinates": [[-56.73378, -2.6235]]}}, {"type": "Feature", "properties": {"nome": "Parintins (Vila Amazônia)", "municipio": "Parintins", "tipo": "IP4", "status": "Concluída", "contrato": "01 00915/2020"}, "geometry": {"type": "MultiPoint", "coordinates": [[-56.66846, -2.61168]]}}, {"type": "Feature", "properties": {"nome": "Santa Isabel do Rio Negro", "municipio": "Santa Isabel do Rio Negro", "tipo": "IP4", "status": "Concluída", "contrato": "01 00032/2021"}, "geometry": {"type": "MultiPoint", "coordinates": [[-65.02078, -0.41692]]}}, {"type": "Feature", "properties": {"nome": "Santo Antônio do Içá", "municipio": "Santo Antônio do Içá", "tipo": "IP4", "status": "Obra paralisada", "contrato": "01 00352/2021"}, "geometry": {"type": "MultiPoint", "coordinates": [[-67.94589, -3.10853]]}}, {"type": "Feature", "properties": {"nome": "São Paulo de Olivença I", "municipio": "São Paulo de Olivença", "tipo": "IP4", "status": "Concluída", "contrato": "01 00352/2021"}, "geometry": {"type": "MultiPoint", "coordinates": [[-68.9576, -3.46231]]}}, {"type": "Feature", "properties": {"nome": "São Raimundo", "municipio": "São Raimundo", "tipo": "IP4", "status": "Concluída", "contrato": "01 00032/2021"}, "geometry": {"type": "MultiPoint", "coordinates": [[-60.04264, -3.12512]]}}, {"type": "Feature", "properties": {"nome": "São Sebastião do Uatumã", "municipio": "São Sebastião do Uatumã", "tipo": "IP4", "status": "Concluída", "contrato": "01 00915/2020"}, "geometry": {"type": "MultiPoint", "coordinates": [[-57.87052, -2.57275]]}}, {"type": "Feature", "properties": {"nome": "Silves", "municipio": "Silves", "tipo": "IP4", "status": "Concluída", "contrato": "01 00915/2020"}, "geometry": {"type": "MultiPoint", "coordinates": [[-58.22456, -2.82506]]}}, {"type": "Feature", "properties": {"nome": "Tabatinga", "municipio": "Tabatinga.", "tipo": "IP4", "status": "Concluída", "contrato": "01 00352/2021"}, "geometry": {"type": "MultiPoint", "coordinates": [[-69.94344, -4.23511]]}}, {"type": "Feature", "properties": {"nome": "Tapauá", "municipio": "Tapauá", "tipo": "IP4", "status": "Concluída", "contrato": "01 00916/2020"}, "geometry": {"type": "MultiPoint", "coordinates": [[-63.18747, -5.61747]]}}, {"type": "Feature", "properties": {"nome": "Tefé (Lago)", "municipio": "Tefé", "tipo": "IP4", "status": "Concluída", "contrato": "01 00354/2021"}, "geometry": {"type": "MultiPoint", "coordinates": [[-64.70737, -3.34442]]}}, {"type": "Feature", "properties": {"nome": "Tonantins", "municipio": "Tonantins", "tipo": "IP4", "status": "Concluída", "contrato": "01 00352/2021"}, "geometry": {"type": "MultiPoint", "coordinates": [[-67.77108, -2.86228]]}}, {"type": "Feature", "properties": {"nome": "Urucará", "municipio": "Urucará", "tipo": "IP4", "status": "Concluída", "contrato": "01 00915/2020"}, "geometry": {"type": "MultiPoint", "coordinates": [[-57.75086, -2.54006]]}}, {"type": "Feature", "properties": {"nome": "Urucurituba", "municipio": "Urucurituba", "tipo": "IP4", "status": "Concluída", "contrato": "01 00353/2021"}, "geometry": {"type": "MultiPoint", "coordinates": [[-58.1587, -3.12309]]}}]}