{"type": "FeatureCollection", "fonte": "DNIT, portos do Sistema Nacional de Viação", "features": [{"type": "Feature", "properties": {"nome": "Manaus", "uf": "AM", "local": "Rio Negro"}, "geometry": {"type": "MultiPoint", "coordinates": [[-59.99542, -3.15453]]}}, {"type": "Feature", "properties": {"nome": "Itacoatiara", "uf": "AM", "local": "Rio Amazonas"}, "geometry": {"type": "MultiPoint", "coordinates": [[-58.44779, -3.14897]]}}, {"type": "Feature", "properties": {"nome": "Parintins", "uf": "AM", "local": "Rio Amazonas"}, "geometry": {"type": "MultiPoint", "coordinates": [[-56.73386, -2.62343]]}}, {"type": "Feature", "properties": {"nome": "Tapuruquara", "uf": "AM", "local": "Rio Negro"}, "geometry": {"type": "MultiPoint", "coordinates": [[-65.02063, -0.41721]]}}, {"type": "Feature", "properties": {"nome": "Lábrea", "uf": "AM", "local": "Rio Purus"}, "geometry": {"type": "MultiPoint", "coordinates": [[-64.79482, -7.25724]]}}, {"type": "Feature", "properties": {"nome": "Boca do Acre", "uf": "AM", "local": "Rio Purús"}, "geometry": {"type": "MultiPoint", "coordinates": [[-67.40237, -8.73986]]}}, {"type": "Feature", "properties": {"nome": "Eirunepé", "uf": "AM", "local": "Rio Juruá"}, "geometry": {"type": "MultiPoint", "coordinates": [[-69.8663, -6.66928]]}}, {"type": "Feature", "properties": {"nome": "Humaitá", "uf": "AM", "local": "Rio Madeira"}, "geometry": {"type": "MultiPoint", "coordinates": [[-63.01916, -7.50917]]}}, {"type": "Feature", "properties": {"nome": "Tabatinga", "uf": "AM", "local": "Rio Amazonas"}, "geometry": {"type": "MultiPoint", "coordinates": [[-69.94466, -4.23256]]}}, {"type": "Feature", "properties": {"nome": "Coari", "uf": "AM", "local": "Rio Solimões"}, "geometry": {"type": "MultiPoint", "coordinates": [[-63.1429, -4.08161]]}}, {"type": "Feature", "properties": {"nome": "Codajás", "uf": "AM", "local": "Rio Solimões"}, "geometry": {"type": "MultiPoint", "coordinates": [[-62.06362, -3.84372]]}}, {"type": "Feature", "properties": {"nome": "Óbidos", "uf": "AM", "local": "Rio Amazonas"}, "geometry": {"type": "MultiPoint", "coordinates": [[-55.5146, -1.91929]]}}, {"type": "Feature", "properties": {"nome": "Tefé", "uf": "AM", "local": "Rio Solimões"}, "geometry": {"type": "MultiPoint", "coordinates": [[-64.7106, -3.34565]]}}, {"type": "Feature", "properties": {"nome": "Santa Izabel do Rio Negro", "uf": "AM", "local": "Rio Negro"}, "geometry": {"type": "MultiPoint", "coordinates": [[-65.01941, -0.41753]]}}, {"type": "Feature", "properties": {"nome": "Cacau Pirera do Rio negro", "uf": "AM", "local": "Rio Negro"}, "geometry": {"type": "MultiPoint", "coordinates": [[-60.09694, -3.149]]}}, {"type": "Feature", "properties": {"nome": "Iranduba", "uf": "AM", "local": "Rio Solimões"}, "geometry": {"type": "MultiPoint", "coordinates": [[-60.18924, -3.29132]]}}, {"type": "Feature", "properties": {"nome": "Urucurituba", "uf": "AM", "local": "Rio Amazonas"}, "geometry": {"type": "MultiPoint", "coordinates": [[-58.15863, -3.12316]]}}, {"type": "Feature", "properties": {"nome": "Nhamundá", "uf": "AM", "local": "Rio Nhamundá"}, "geometry": {"type": "MultiPoint", "coordinates": [[-56.71222, -2.18555]]}}, {"type": "Feature", "properties": {"nome": "Tonantins", "uf": "AM", "local": "Rio Solimões"}, "geometry": {"type": "MultiPoint", "coordinates": [[-67.77175, -2.86259]]}}, {"type": "Feature", "properties": {"nome": "São Raimundo", "uf": "AM", "local": "Rio Amazonas"}, "geometry": {"type": "MultiPoint", "coordinates": [[-60.04403, -3.12554]]}}, {"type": "Feature", "properties": {"nome": "Barcelos", "uf": "AM", "local": "Rio Negro"}, "geometry": {"type": "MultiPoint", "coordinates": [[-62.9269, -0.96858]]}}, {"type": "Feature", "properties": {"nome": "Jutaí", "uf": "AM", "local": "Rio Solimões"}, "geometry": {"type": "MultiPoint", "coordinates": [[-66.77304, -2.74384]]}}, {"type": "Feature", "properties": {"nome": "Manacapuru", "uf": "AM", "local": "Rio Solimões"}, "geometry": {"type": "MultiPoint", "coordinates": [[-60.62388, -3.3018]]}}, {"type": "Feature", "properties": {"nome": "São Paulo de Olivença", "uf": "AM", "local": "Rio Solimões"}, "geometry": {"type": "MultiPoint", "coordinates": [[-68.95771, -3.46231]]}}, {"type": "Feature", "properties": {"nome": "Maués", "uf": "AM", "local": "Rio Amazonas"}, "geometry": {"type": "MultiPoint", "coordinates": [[-57.72516, -3.38231]]}}, {"type": "Feature", "properties": {"nome": "Fonte Boa", "uf": "AM", "local": "Rio Solimões"}, "geometry": {"type": "MultiPoint", "coordinates": [[-66.06763, -2.4956]]}}, {"type": "Feature", "properties": {"nome": "Borba", "uf": "AM", "local": "Rio Madeira"}, "geometry": {"type": "MultiPoint", "coordinates": [[-59.59644, -4.38824]]}}, {"type": "Feature", "properties": {"nome": "Novo Airão", "uf": "AM", "local": "Rio Negro"}, "geometry": {"type": "MultiPoint", "coordinates": [[-60.94581, -2.62069]]}}, {"type": "Feature", "properties": {"nome": "Manicoré", "uf": "AM", "local": "Rio Madeira"}, "geometry": {"type": "MultiPoint", "coordinates": [[-61.29938, -5.80456]]}}, {"type": "Feature", "properties": {"nome": "Manaquiri", "uf": "AM", "local": "Rio Solimões"}, "geometry": {"type": "MultiPoint", "coordinates": [[-60.45908, -3.42714]]}}, {"type": "Feature", "properties": {"nome": "Urucará", "uf": "AM", "local": "Rio Amazonas"}, "geometry": {"type": "MultiPoint", "coordinates": [[-57.75689, -2.5383]]}}, {"type": "Feature", "properties": {"nome": "Novo Aripuanã", "uf": "AM", "local": "Rio Madeira"}, "geometry": {"type": "MultiPoint", "coordinates": [[-60.37453, -5.11584]]}}, {"type": "Feature", "properties": {"nome": "Autazes", "uf": "AM", "local": "Rio Autazes-Açu"}, "geometry": {"type": "MultiPoint", "coordinates": [[-59.13444, -3.57743]]}}, {"type": "Feature", "properties": {"nome": "Benjamin Constant", "uf": "AM", "local": "Rio javari"}, "geometry": {"type": "MultiPoint", "coordinates": [[-70.02756, -4.37307]]}}, {"type": "Feature", "properties": {"nome": "Nova Olinda do Norte", "uf": "AM", "local": "Rio Madeira"}, "geometry": {"type": "MultiPoint", "coordinates": [[-59.09181, -3.88643]]}}, {"type": "Feature", "properties": {"nome": "Santo Antônio do Içá", "uf": "AM", "local": "Rio Solimões"}, "geometry": {"type": "MultiPoint", "coordinates": [[-67.94528, -3.10734]]}}, {"type": "Feature", "properties": {"nome": "São Sebastião do Uatumã", "uf": "AM", "local": "Rio Uatumã"}, "geometry": {"type": "MultiPoint", "coordinates": [[-57.8705, -2.57258]]}}, {"type": "Feature", "properties": {"nome": "Parintins - Vila Amazônia", "uf": "AM", "local": "Rio Amazonas"}, "geometry": {"type": "MultiPoint", "coordinates": [[-56.66811, -2.61144]]}}, {"type": "Feature", "properties": {"nome": "Tefé", "uf": "AM", "local": "Lago de Tefé"}, "geometry": {"type": "MultiPoint", "coordinates": [[-64.71786, -3.34625]]}}, {"type": "Feature", "properties": {"nome": "Alvarães", "uf": "AM", "local": "Rio Solimões"}, "geometry": {"type": "MultiPoint", "coordinates": [[-64.80344, -3.21088]]}}, {"type": "Feature", "properties": {"nome": "Amaturá", "uf": "AM", "local": "Rio Solimões"}, "geometry": {"type": "MultiPoint", "coordinates": [[-68.19804, -3.35931]]}}, {"type": "Feature", "properties": {"nome": "Anamã", "uf": "AM", "local": "Rio Solimões"}, "geometry": {"type": "MultiPoint", "coordinates": [[-61.40479, -3.58264]]}}, {"type": "Feature", "properties": {"nome": "Anori", "uf": "AM", "local": "Lago do Anori"}, "geometry": {"type": "MultiPoint", "coordinates": [[-61.65929, -3.74962]]}}, {"type": "Feature", "properties": {"nome": "Atalaia do Norte", "uf": "AM", "local": "Rio Solimões"}, "geometry": {"type": "MultiPoint", "coordinates": [[-70.1923, -4.36265]]}}, {"type": "Feature", "properties": {"nome": "Barreirinha", "uf": "AM", "local": "Paraná do Ramos"}, "geometry": {"type": "MultiPoint", "coordinates": [[-57.0728, -2.79316]]}}, {"type": "Feature", "properties": {"nome": "Beruri", "uf": "AM", "local": "Rio Purus"}, "geometry": {"type": "MultiPoint", "coordinates": [[-61.37584, -3.89753]]}}, {"type": "Feature", "properties": {"nome": "Boa Vista do Ramos", "uf": "AM", "local": "Paraná do Ramos"}, "geometry": {"type": "MultiPoint", "coordinates": [[-57.58994, -2.9686]]}}, {"type": "Feature", "properties": {"nome": "Caapiranga", "uf": "AM", "local": "Solimões"}, "geometry": {"type": "MultiPoint", "coordinates": [[-61.20975, -3.32954]]}}, {"type": "Feature", "properties": {"nome": "Canutama", "uf": "AM", "local": "Rio Purus"}, "geometry": {"type": "MultiPoint", "coordinates": [[-64.38711, -6.54]]}}, {"type": "Feature", "properties": {"nome": "Carauari", "uf": "AM", "local": "Rio Juruá"}, "geometry": {"type": "MultiPoint", "coordinates": [[-66.85118, -4.8358]]}}, {"type": "Feature", "properties": {"nome": "Careiro da Várzea", "uf": "AM", "local": "Rio Solimões"}, "geometry": {"type": "MultiPoint", "coordinates": [[-59.86847, -3.18952]]}}, {"type": "Feature", "properties": {"nome": "Envira", "uf": "AM", "local": "Rio Tarauacá"}, "geometry": {"type": "MultiPoint", "coordinates": [[-70.02534, -7.43106]]}}, {"type": "Feature", "properties": {"nome": "Guajará", "uf": "AM", "local": "Rio Juruá"}, "geometry": {"type": "MultiPoint", "coordinates": [[-72.5739, -7.5421]]}}, {"type": "Feature", "properties": {"nome": "Ipixuna", "uf": "AM", "local": "Rio Juruá"}, "geometry": {"type": "MultiPoint", "coordinates": [[-71.69122, -7.05511]]}}, {"type": "Feature", "properties": {"nome": "Itamarati", "uf": "AM", "local": "Rio Juruá"}, "geometry": {"type": "MultiPoint", "coordinates": [[-68.24527, -6.44102]]}}, {"type": "Feature", "properties": {"nome": "Itapiranga", "uf": "AM", "local": "Rio Amazonas"}, "geometry": {"type": "MultiPoint", "coordinates": [[-58.02274, -2.75035]]}}, {"type": "Feature", "properties": {"nome": "Japurá", "uf": "AM", "local": "Rio Japurá"}, "geometry": {"type": "MultiPoint", "coordinates": [[-66.99645, -1.87702]]}}, {"type": "Feature", "properties": {"nome": "Juruá", "uf": "AM", "local": "Rio Juruá"}, "geometry": {"type": "MultiPoint", "coordinates": [[-66.06314, -3.47019]]}}, {"type": "Feature", "properties": {"nome": "Maraã", "uf": "AM", "local": "Rio Japurá"}, "geometry": {"type": "MultiPoint", "coordinates": [[-65.59168, -1.86166]]}}, {"type": "Feature", "properties": {"nome": "Pauini", "uf": "AM", "local": "Rio Purus"}, "geometry": {"type": "MultiPoint", "coordinates": [[-67.00173, -7.71887]]}}, {"type": "Feature", "properties": {"nome": "Rio Preto da Eva", "uf": "AM", "local": "Rio Preto da Eva"}, "geometry": {"type": "MultiPoint", "coordinates": [[-59.70274, -2.69989]]}}, {"type": "Feature", "properties": {"nome": "Sâo Gabriel da Cachoeira", "uf": "AM", "local": "Rio Negro"}, "geometry": {"type": "MultiPoint", "coordinates": [[-67.00855, -0.18194]]}}, {"type": "Feature", "properties": {"nome": "Silves", "uf": "AM", "local": "Rio Urubu"}, "geometry": {"type": "MultiPoint", "coordinates": [[-58.20729, -2.83763]]}}, {"type": "Feature", "properties": {"nome": "Tapauá", "uf": "AM", "local": "Rio Purus"}, "geometry": {"type": "MultiPoint", "coordinates": [[-63.18762, -5.61745]]}}, {"type": "Feature", "properties": {"nome": "Uarini", "uf": "AM", "local": "Rio Solimões"}, "geometry": {"type": "MultiPoint", "coordinates": [[-65.15526, -2.98681]]}}, {"type": "Feature", "properties": {"nome": "Porto do Pólo Industrial de Manausam", "uf": "AM", "local": "Rio negro"}, "geometry": {"type": "MultiPoint", "coordinates": [[-60.07512, -3.09804]]}}]}