{"type": "FeatureCollection", "fonte": "ANTAQ pelo DNIT, travessias outorgadas", "features": [{"type": "Feature", "properties": {"nome": "Apuí - Lado Direito do Rio Sucunduri (AM) / Diretriz de Rodovia - 230", "origem": "Apuí", "destino": "Apuí", "rio": "Sucunduri", "operadores": 1}, "geometry": {"type": "LineString", "coordinates": [[-59.04277, -6.79455], [-59.04177, -6.79407]]}}, {"type": "Feature", "properties": {"nome": "Apuí - Lado direito do Rio Aripuanã (AM) / Diretriz de Rodovia - 230", "origem": "Apuí", "destino": "Apuí", "rio": "Aripuanã", "operadores": 1}, "geometry": {"type": "LineString", "coordinates": [[-60.67169, -7.52084], [-60.67017, -7.52325]]}}, {"type": "Feature", "properties": {"nome": "Canutama - Diretriz da BR 230, lado direito e esquerdo, rio Mucuim, KM 70", "origem": "Canutama", "destino": "Lábrea", "rio": "Mucuim", "operadores": 1}, "geometry": {"type": "LineString", "coordinates": [[-64.2433, -7.46538], [-64.24246, -7.46493]]}}, {"type": "Feature", "properties": {"nome": "Humaitá - Diretriz da Rodovia Federal Br - 230 (AM) / Humaitá (AM)", "origem": "Humaitá", "destino": "Humaitá", "rio": "Madeira", "operadores": 1}, "geometry": {"type": "LineString", "coordinates": [[-63.01273, -7.4869], [-63.02189, -7.49492]]}}, {"type": "Feature", "properties": {"nome": "Manaus - Terminal CEASA (AM) / Careiro - Terminal Careiro (AM)", "origem": "Manaus", "destino": "Careiro", "rio": "Negro", "operadores": 52}, "geometry": {"type": "LineString", "coordinates": [[-59.9388, -3.13597], [-59.90422, -3.13171], [-59.89468, -3.14483], [-59.8806, -3.18508], [-59.86872, -3.18963]]}}, {"type": "Feature", "properties": {"nome": "Beruri - Diretriz da Rodovia Federal BR 319 (AM) / Beruri - Diretriz da Rodovia", "origem": "Beruri", "destino": "Beruri", "rio": "Igapó-Açu", "operadores": 2}, "geometry": {"type": "LineString", "coordinates": [[-61.29226, -4.71125], [-61.29295, -4.71271]]}}, {"type": "Feature", "properties": {"nome": "Tabatinga (AM) / Benjamin Constant (AM)", "origem": "Tabatinga", "destino": "Benjamin Constant", "rio": "Solimões", "operadores": 31}, "geometry": {"type": "LineString", "coordinates": [[-69.94517, -4.23453], [-69.95088, -4.26336], [-69.93641, -4.30563], [-70.00954, -4.37642]]}}]}